"","Nombre","Direccion","Latitud","Longitud","objectid","shape_leng","dis_elec","cir_sena","cod_comuna","codregion","st_area_sh","st_length_","Region","Comuna","Provincia","cantidad super","CANT_PER","densidad_super"
"1","Supermercado Mayorista Alvi - Santa Rosa","Santa Rosa N° 5000",-33.5033,-70.638811,330,13987.3267808,10,7,13129,13,14243413.4206,16812.167615,"Región Metropolitana de Santiago","San Joaquín","Santiago",10,90192,9019.2
"2","Supermercado Mayorista 10 - Llico / Santa Rosa","Llico Nº 456",-33.5055327486,-70.6371230194,330,13987.3267808,10,7,13129,13,14243413.4206,16812.167615,"Región Metropolitana de Santiago","San Joaquín","Santiago",10,90192,9019.2
"3","Supermercado Ekono - Santa Rosa / Santa Ester","Av. Santa Rosa N° 4480",-33.4985323371179,-70.6391876935959,330,13987.3267808,10,7,13129,13,14243413.4206,16812.167615,"Región Metropolitana de Santiago","San Joaquín","Santiago",10,90192,9019.2
"4","Supermercado Santa Isabel - Vicuña Mackenna / Isabel Riquelme","Av. Vicuña Mackenna Nº 11145",-33.484662,-70.620498,330,13987.3267808,10,7,13129,13,14243413.4206,16812.167615,"Región Metropolitana de Santiago","San Joaquín","Santiago",10,90192,9019.2
"5"," Supermercado Ekono","Av. Las Industrias Nº 5155",-33.503452,-70.627258,330,13987.3267808,10,7,13129,13,14243413.4206,16812.167615,"Región Metropolitana de Santiago","San Joaquín","Santiago",10,90192,9019.2
"6","Líder - Vicuña Mackenna / Aysén","Av. Vicuña Mackenna Nº 3361",-33.483533,-70.620782,330,13987.3267808,10,7,13129,13,14243413.4206,16812.167615,"Región Metropolitana de Santiago","San Joaquín","Santiago",10,90192,9019.2
"7","Supermercado Líder - Vicuña Mackenna / Aysén","Av. Vicuña Mackenna N° 3313",-33.482972,-70.620932,330,13987.3267808,10,7,13129,13,14243413.4206,16812.167615,"Región Metropolitana de Santiago","San Joaquín","Santiago",10,90192,9019.2
"8","Supermercado Unimarc - Av. Santa Rosa","Av. Santa Rosa N° 5620",-33.508578,-70.638239,330,13987.3267808,10,7,13129,13,14243413.4206,16812.167615,"Región Metropolitana de Santiago","San Joaquín","Santiago",10,90192,9019.2
"9","Supermercado Ekono - Vicuña Mackenna / Isabel Riquelme","Av. Vicuña Mackenna N° 8733",-33.484595,-70.620515,330,13987.3267808,10,7,13129,13,14243413.4206,16812.167615,"Región Metropolitana de Santiago","San Joaquín","Santiago",10,90192,9019.2
"10","Supermercado Ekono - Las Industrias ","Av. Las Industrias N° 5155",-33.50359,-70.626984,330,13987.3267808,10,7,13129,13,14243413.4206,16812.167615,"Región Metropolitana de Santiago","San Joaquín","Santiago",10,90192,9019.2
"11","Supermercado mayorista 10","Jose miguel carrera N° 6060",-33.511086,-70.656883,331,13311.6413035,13,7,13130,13,13895381.1211,15988.8160374,"Región Metropolitana de Santiago","San Miguel","Santiago",6,102504,17084
"12","Supermercado Líder Express - San Miguel","Gran Avenida José Miguel Carrera N° 4004",-33.490027,-70.651093,331,13311.6413035,13,7,13130,13,13895381.1211,15988.8160374,"Región Metropolitana de Santiago","San Miguel","Santiago",6,102504,17084
"13","Supermercados Erbi - Gran Avenida 3","Gran Avenida José Miguel Carrera N° 4293",-33.4933614088,-70.6518036478,331,13311.6413035,13,7,13130,13,13895381.1211,15988.8160374,"Región Metropolitana de Santiago","San Miguel","Santiago",6,102504,17084
"14","Supermercado Jumbo - El Llano","El Llano Subercaseaux N° 3519",-33.486784,-70.650897,331,13311.6413035,13,7,13130,13,13895381.1211,15988.8160374,"Región Metropolitana de Santiago","San Miguel","Santiago",6,102504,17084
"15","Supermercado Unimarc - Gran Avenida / Departamental","Gran Avenida José Miguel Carrera N° 5485",-33.503802,-70.65509,331,13311.6413035,13,7,13130,13,13895381.1211,15988.8160374,"Región Metropolitana de Santiago","San Miguel","Santiago",6,102504,17084
"16","Supermercado Líder - Gran Avenida","Av.  José Miguel Carrera Nº 6150",-33.512294,-70.657292,331,13311.6413035,13,7,13130,13,13895381.1211,15988.8160374,"Región Metropolitana de Santiago","San Miguel","Santiago",6,102504,17084
"17","Supermercado Dipac San Ramón ","Santa Rosa N° 9.401",-33.546701,-70.633718,332,11733.4867099,13,7,13131,13,9056279.75212,14061.5288579,"Región Metropolitana de Santiago","San Ramón","Santiago",3,79101,26367
"18","Supermercado Líder  Santa Rosa / Los Franciscanos","Santa Rosa Nº 9252",-33.5455463417,-70.6338725867,332,11733.4867099,13,7,13131,13,9056279.75212,14061.5288579,"Región Metropolitana de Santiago","San Ramón","Santiago",3,79101,26367
"19","supermercado lider","Av. Santa Rosa Nº 9233",-33.545235,-70.633832,332,11733.4867099,13,7,13131,13,9056279.75212,14061.5288579,"Región Metropolitana de Santiago","San Ramón","Santiago",3,79101,26367
"20","Supermercado Ekono - Vivaceta","Av. Fermín Vivaceta esq. Domingo Santa Maria ",-33.4156085,-70.6665105,309,11488.6957475,9,7,13108,13,10686368.3225,14088.4174883,"Región Metropolitana de Santiago","Independencia","Santiago",12,94289,7857.41666666667
"21","Supermercado Santa Isabel - Fermín Vivaceta","Fermin Vivaceta Nº 957",-33.4201574978,-70.6627376761,309,11488.6957475,9,7,13108,13,10686368.3225,14088.4174883,"Región Metropolitana de Santiago","Independencia","Santiago",12,94289,7857.41666666667
"22","Supermercado Santa Isabel - Vivaceta","Av. Fermín Vivaceta Nº 957",-33.420319,-70.663239,309,11488.6957475,9,7,13108,13,10686368.3225,14088.4174883,"Región Metropolitana de Santiago","Independencia","Santiago",12,94289,7857.41666666667
"23","Supermercado Ekono - Av. Fermín Vivaceta","Av. Fermín Vivaceta N°1294",-33.41566,-70.664297,309,11488.6957475,9,7,13108,13,10686368.3225,14088.4174883,"Región Metropolitana de Santiago","Independencia","Santiago",12,94289,7857.41666666667
"24","Supermercado Tottus - Vivaceta","Av. Fermín Vivaceta Nº 1018",-33.4188297,-70.6639374,309,11488.6957475,9,7,13108,13,10686368.3225,14088.4174883,"Región Metropolitana de Santiago","Independencia","Santiago",12,94289,7857.41666666667
"25","Montserrat","Av. Independencia N° 2127",-33.406817,-70.660604,309,11488.6957475,9,7,13108,13,10686368.3225,14088.4174883,"Región Metropolitana de Santiago","Independencia","Santiago",12,94289,7857.41666666667
"26","Supermercado Montserrat - Independencia","Av. Independencia N° 2127",-33.4066794793,-70.6604231937,309,11488.6957475,9,7,13108,13,10686368.3225,14088.4174883,"Región Metropolitana de Santiago","Independencia","Santiago",12,94289,7857.41666666667
"27","Ekono - Av. Independencia / Cruz","Av. Independencia N° 650",-33.423533,-70.655215,309,11488.6957475,9,7,13108,13,10686368.3225,14088.4174883,"Región Metropolitana de Santiago","Independencia","Santiago",12,94289,7857.41666666667
"28","Supermercado Montserrat - Av. Independencia / Hipódromo","Av. Independencia N° 2127",-33.406855,-70.660628,309,11488.6957475,9,7,13108,13,10686368.3225,14088.4174883,"Región Metropolitana de Santiago","Independencia","Santiago",12,94289,7857.41666666667
"29","Supermercado Unimarc - Salomón Sack","Salomón Sack N° 351",-33.419796,-70.670239,309,11488.6957475,9,7,13108,13,10686368.3225,14088.4174883,"Región Metropolitana de Santiago","Independencia","Santiago",12,94289,7857.41666666667
"30","Supermercado Santa Isabel - Portal Vivaceta","Vivaceta N° 957",-33.4201574978,-70.6627376761,309,11488.6957475,9,7,13108,13,10686368.3225,14088.4174883,"Región Metropolitana de Santiago","Independencia","Santiago",12,94289,7857.41666666667
"31","Ekono - Independencia","Av. Independencia N° 1113",-33.4175099421,-70.6562288682,309,11488.6957475,9,7,13108,13,10686368.3225,14088.4174883,"Región Metropolitana de Santiago","Independencia","Santiago",12,94289,7857.41666666667
"32","Supermercado San Sebastián","Av. El Parrón Nº 01180",-33.5219967817,-70.6748174975,310,12797.5957621,13,7,13109,13,14541846.5798,15442.4127548,"Región Metropolitana de Santiago","La Cisterna","Santiago",9,86037,9559.66666666667
"33","Supermercado Ekono - Gran Avenida José Miguel Carrera / Fernández Albano","Gran Avenida José Miguel Carrera N° 7406",-33.522772,-70.660395,310,12797.5957621,13,7,13109,13,14541846.5798,15442.4127548,"Región Metropolitana de Santiago","La Cisterna","Santiago",9,86037,9559.66666666667
"34","Supermercado ekono","Ecuador N° 948",-33.535664,-70.652824,310,12797.5957621,13,7,13109,13,14541846.5798,15442.4127548,"Región Metropolitana de Santiago","La Cisterna","Santiago",9,86037,9559.66666666667
"35","Supermercado Santa Isabel - Gran Avenida ","Gran Avenida José Miguel Carrera Nº 6610",-33.518024,-70.658929,310,12797.5957621,13,7,13109,13,14541846.5798,15442.4127548,"Región Metropolitana de Santiago","La Cisterna","Santiago",9,86037,9559.66666666667
"36","Supermercado Ekono - La Cisterna","Gran Avenida José Miguel Carrera N° 7406",-33.5229296961,-70.66018923,310,12797.5957621,13,7,13109,13,14541846.5798,15442.4127548,"Región Metropolitana de Santiago","La Cisterna","Santiago",9,86037,9559.66666666667
"37","Ekono Las Brisas","Gran Avenida José Miguel Carrera N° 8540",-33.533847001366,-70.6631183624268,310,12797.5957621,13,7,13109,13,14541846.5798,15442.4127548,"Región Metropolitana de Santiago","La Cisterna","Santiago",9,86037,9559.66666666667
"38","Supermercado Unimarc - Gran Avenida / Carvajal","Gran Avenida José Miguel Carrera N° 6555",-33.5170707208759,-70.6589701984076,310,12797.5957621,13,7,13109,13,14541846.5798,15442.4127548,"Región Metropolitana de Santiago","La Cisterna","Santiago",9,86037,9559.66666666667
"39","Supermercado Erbi - Gran Avenida 1","Gran Avenida José Miguel Carrera Nº 8101",-33.5286061413,-70.6617581167,310,12797.5957621,13,7,13109,13,14541846.5798,15442.4127548,"Región Metropolitana de Santiago","La Cisterna","Santiago",9,86037,9559.66666666667
"40","Supermercado Santa Isabel - Intermodal La Cisterna","Av. Ossa Nº 36 ",-33.538843,-70.664631,310,12797.5957621,13,7,13109,13,14541846.5798,15442.4127548,"Región Metropolitana de Santiago","La Cisterna","Santiago",9,86037,9559.66666666667
"41","Supermercado El Pájaro Loco","Altiplano  N° 1996 ",-33.47472538,-70.56321391,323,36618.9716947,11,7,13122,13,77092706.9478,43954.3369677,"Región Metropolitana de Santiago","Peñalolén","Santiago",17,232112,13653.6470588235
"42","Líder express el hualle","Av. Sánchez fontecilla N° 8968",-33.477825,-70.556442,323,36618.9716947,11,7,13122,13,77092706.9478,43954.3369677,"Región Metropolitana de Santiago","Peñalolén","Santiago",17,232112,13653.6470588235
"43","Supermercado Líder Express - Consistorial","Av. Consistorial N° 3349",-33.487974,-70.549148,323,36618.9716947,11,7,13122,13,77092706.9478,43954.3369677,"Región Metropolitana de Santiago","Peñalolén","Santiago",17,232112,13653.6470588235
"44","Supermercado Jumbo - Peñalolén","Av. Sánchez Fontecilla N° 12000",-33.486446,-70.557735,323,36618.9716947,11,7,13122,13,77092706.9478,43954.3369677,"Región Metropolitana de Santiago","Peñalolén","Santiago",17,232112,13653.6470588235
"45","Supermercado Jumbo - Mariano Sánchez Fontecilla / Los Presidentes","Mariano Sánchez Fontecilla Nº 12000",-33.4877682716,-70.5572043827,323,36618.9716947,11,7,13122,13,77092706.9478,43954.3369677,"Región Metropolitana de Santiago","Peñalolén","Santiago",17,232112,13653.6470588235
"46","Tottus- Peñalolen","Av.Tobalaba N° 11201",-33.4744,-70.555511,323,36618.9716947,11,7,13122,13,77092706.9478,43954.3369677,"Región Metropolitana de Santiago","Peñalolén","Santiago",17,232112,13653.6470588235
"47","Monserrat peñalolen","Av. grecia N° 8585",-33.475952,-70.543671,323,36618.9716947,11,7,13122,13,77092706.9478,43954.3369677,"Región Metropolitana de Santiago","Peñalolén","Santiago",17,232112,13653.6470588235
"48","Santa Isabel","Av. Grecia N° 5791",-33.4695254766,-70.5745840886,323,36618.9716947,11,7,13122,13,77092706.9478,43954.3369677,"Región Metropolitana de Santiago","Peñalolén","Santiago",17,232112,13653.6470588235
"49","Supermercado Santa Isabel - Tobalaba","Av. Tobalaba N° 13949",-33.5034635927,-70.5612066757,323,36618.9716947,11,7,13122,13,77092706.9478,43954.3369677,"Región Metropolitana de Santiago","Peñalolén","Santiago",17,232112,13653.6470588235
"50","Supermercado Líder - Mar Tirreno ","Mar Tirreno N° 3349",-33.487185844,-70.5767381472,323,36618.9716947,11,7,13122,13,77092706.9478,43954.3369677,"Región Metropolitana de Santiago","Peñalolén","Santiago",17,232112,13653.6470588235
"51","Supermercado Unimarc - Las Parcelas ","Las Parcelas N° 9001",-33.472433,-70.537744,323,36618.9716947,11,7,13122,13,77092706.9478,43954.3369677,"Región Metropolitana de Santiago","Peñalolén","Santiago",17,232112,13653.6470588235
"52","Supermercado Líder - Mall Paseo Quilín ","Av. Américo Vespucio Nº 3100",-33.484792,-70.579388,323,36618.9716947,11,7,13122,13,77092706.9478,43954.3369677,"Región Metropolitana de Santiago","Peñalolén","Santiago",17,232112,13653.6470588235
"53","Supermercado Montserrat - Grecia","Av. Grecia N° 8585",-33.475992,-70.543381,323,36618.9716947,11,7,13122,13,77092706.9478,43954.3369677,"Región Metropolitana de Santiago","Peñalolén","Santiago",17,232112,13653.6470588235
"54","Supermercado Unimarc - Av. Consistorial","Av. Consistorial N° 2701",-33.4840179,-70.5473537,323,36618.9716947,11,7,13122,13,77092706.9478,43954.3369677,"Región Metropolitana de Santiago","Peñalolén","Santiago",17,232112,13653.6470588235
"55","Supermercado Tottus - Tobalaba / Grecia","Av. Tobalaba N° 11201",-33.4723,-70.55493,323,36618.9716947,11,7,13122,13,77092706.9478,43954.3369677,"Región Metropolitana de Santiago","Peñalolén","Santiago",17,232112,13653.6470588235
"56","Supermercado Unimarc - Av. Tobalaba","Av. Tobalaba Nº 11855",-33.4822066667,-70.5587616667,323,36618.9716947,11,7,13122,13,77092706.9478,43954.3369677,"Región Metropolitana de Santiago","Peñalolén","Santiago",17,232112,13653.6470588235
"57","Supermercado Ekono - Las Parcelas / Laguna San Pedro","Las Parcelas N° 8405",-33.471224,-70.543987,323,36618.9716947,11,7,13122,13,77092706.9478,43954.3369677,"Región Metropolitana de Santiago","Peñalolén","Santiago",17,232112,13653.6470588235
"58","Supermercado La Ponderosa","Santa Isabel Nº 0488",-33.4459625833,-70.6245829167,324,16072.4082758,10,7,13123,13,20730831.4383,19223.7409329,"Región Metropolitana de Santiago","Providencia","Santiago",26,132404,5092.46153846154
"59","Supermercado Ekono - Los Leones","Los Leones N° 1881",-33.436421,-70.601072,324,16072.4082758,10,7,13123,13,20730831.4383,19223.7409329,"Región Metropolitana de Santiago","Providencia","Santiago",26,132404,5092.46153846154
"60","Supermercado Ekono - Tobalaba","Av. Tobalaba N° 1177",-33.425457,-70.592452,324,16072.4082758,10,7,13123,13,20730831.4383,19223.7409329,"Región Metropolitana de Santiago","Providencia","Santiago",26,132404,5092.46153846154
"61","Supermercado Las Violetas","Suecia Nº 1499",-33.4336916667,-70.60369125,324,16072.4082758,10,7,13123,13,20730831.4383,19223.7409329,"Región Metropolitana de Santiago","Providencia","Santiago",26,132404,5092.46153846154
"62","Supermercados Erbi - El Aguilucho","El Aguilucho N° 3404",-33.4428293333,-70.5959381667,324,16072.4082758,10,7,13123,13,20730831.4383,19223.7409329,"Región Metropolitana de Santiago","Providencia","Santiago",26,132404,5092.46153846154
"63","Ekono - Eliodoro Yáñez","Eliodoro Yáñez N° 1371",-33.4332019252,-70.6167950683,324,16072.4082758,10,7,13123,13,20730831.4383,19223.7409329,"Región Metropolitana de Santiago","Providencia","Santiago",26,132404,5092.46153846154
"64","Supermercado Unimarc - Av. Manuel Montt","Av. Manuel Montt Nº 1079",-33.43752,-70.615988,324,16072.4082758,10,7,13123,13,20730831.4383,19223.7409329,"Región Metropolitana de Santiago","Providencia","Santiago",26,132404,5092.46153846154
"65","Supermercado Las Violetas","Av. Suecia N° 1499",-33.4338102372,-70.6036149779,324,16072.4082758,10,7,13123,13,20730831.4383,19223.7409329,"Región Metropolitana de Santiago","Providencia","Santiago",26,132404,5092.46153846154
"66","Supermercado Diez - Providencia","Los Conquistadores Nº 2230",-33.4177779167,-70.6139000463,324,16072.4082758,10,7,13123,13,20730831.4383,19223.7409329,"Región Metropolitana de Santiago","Providencia","Santiago",26,132404,5092.46153846154
"67","Ekono - Av. Eliodoro Yáñez / ","Av. Eliodoro Yáñez N° 1371",-33.4332099,-70.6165674,324,16072.4082758,10,7,13123,13,20730831.4383,19223.7409329,"Región Metropolitana de Santiago","Providencia","Santiago",26,132404,5092.46153846154
"68","Buena Caza Scout","Los Jesuitas N° 822",-33.444118,-70.620842,324,16072.4082758,10,7,13123,13,20730831.4383,19223.7409329,"Región Metropolitana de Santiago","Providencia","Santiago",26,132404,5092.46153846154
"69","Ekono - Eliodoro Yáñez","Eliodoro Yáñez N° 1405 ",-33.4331116667,-70.6165358333,324,16072.4082758,10,7,13123,13,20730831.4383,19223.7409329,"Región Metropolitana de Santiago","Providencia","Santiago",26,132404,5092.46153846154
"70","Supermercado Líder Express - Santa Isabel / Seminario","Av. Santa Isabel N° 170",-33.44692,-70.628944,324,16072.4082758,10,7,13123,13,20730831.4383,19223.7409329,"Región Metropolitana de Santiago","Providencia","Santiago",26,132404,5092.46153846154
"71","Supermercado Lider","Av. Rancagua N° 180",-33.440939,-70.630201,324,16072.4082758,10,7,13123,13,20730831.4383,19223.7409329,"Región Metropolitana de Santiago","Providencia","Santiago",26,132404,5092.46153846154
"72","Supermercado Líder Express - Plaza Lyon","Av. Nueva Providencia Nº 2249",-33.4219538517,-70.6081661556,324,16072.4082758,10,7,13123,13,20730831.4383,19223.7409329,"Región Metropolitana de Santiago","Providencia","Santiago",26,132404,5092.46153846154
"73","Supermercado Ekono - Av. Santa Isabel","Av. Santa Isabel N° 861",-33.445112,-70.619881,324,16072.4082758,10,7,13123,13,20730831.4383,19223.7409329,"Región Metropolitana de Santiago","Providencia","Santiago",26,132404,5092.46153846154
"74","Supermercado Ekono - Santa Isabel / José Manuel Infante","Santa Isabel N° 865",-33.4452141667,-70.6201116667,324,16072.4082758,10,7,13123,13,20730831.4383,19223.7409329,"Región Metropolitana de Santiago","Providencia","Santiago",26,132404,5092.46153846154
"75","Supermercado Ekono - Av. Providencia / Antonio Bellet","Av. Providencia N° 1634",-33.4267286489,-70.6161987686,324,16072.4082758,10,7,13123,13,20730831.4383,19223.7409329,"Región Metropolitana de Santiago","Providencia","Santiago",26,132404,5092.46153846154
"76","Supermercado Jumbo - Mall Costanera Center","Av. Andrés Bello Nº 2465",-33.4174979,-70.6080864,324,16072.4082758,10,7,13123,13,20730831.4383,19223.7409329,"Región Metropolitana de Santiago","Providencia","Santiago",26,132404,5092.46153846154
"77","Supermercado Unimarc - Av. Francisco Bilbao","Av. Francisco Bilbao N° 2038",-33.438209,-70.606664,324,16072.4082758,10,7,13123,13,20730831.4383,19223.7409329,"Región Metropolitana de Santiago","Providencia","Santiago",26,132404,5092.46153846154
"78","Supermercado Líder Express - Tobalaba","Las Camelias Nº 2875",-33.4227716667,-70.59741,324,16072.4082758,10,7,13123,13,20730831.4383,19223.7409329,"Región Metropolitana de Santiago","Providencia","Santiago",26,132404,5092.46153846154
"79","Supermercado Santa Isabel - Francisco Bilbao ","Av. Francisco Bilbao Nº 2855",-33.4355797,-70.5915538,324,16072.4082758,10,7,13123,13,20730831.4383,19223.7409329,"Región Metropolitana de Santiago","Providencia","Santiago",26,132404,5092.46153846154
"80","Supermercado Líder Express - Manuel Montt / Providencia","Av. Manuel Montt Nº 80 ",-33.429457,-70.619866,324,16072.4082758,10,7,13123,13,20730831.4383,19223.7409329,"Región Metropolitana de Santiago","Providencia","Santiago",26,132404,5092.46153846154
"81","Supermercado Santa Isabel - Providencia","Av. Providencia Nº 2178",-33.422063,-70.6103,324,16072.4082758,10,7,13123,13,20730831.4383,19223.7409329,"Región Metropolitana de Santiago","Providencia","Santiago",26,132404,5092.46153846154
"82","Supermercado Líder Express - Pedro de Valdivia","Av. Pedro de Valdivia N° 1885",-33.440033,-70.607077,324,16072.4082758,10,7,13123,13,20730831.4383,19223.7409329,"Región Metropolitana de Santiago","Providencia","Santiago",26,132404,5092.46153846154
"83","Supermercado Santa Isabel - Providencia / Andrés de Fuenzalida","Av. Providencia Nº 2158",-33.422329,-70.610716,324,16072.4082758,10,7,13123,13,20730831.4383,19223.7409329,"Región Metropolitana de Santiago","Providencia","Santiago",26,132404,5092.46153846154
"84","Tottus- Ossa 91","Av. Ossa N°91",-33.452882,-70.57049,314,23724.8993554,11,7,13113,13,33615096.9517,28343.6615083,"Región Metropolitana de Santiago","La Reina","Santiago",11,88918,8083.45454545455
"85","Tottus- Ossa","Av. Ossa N°123",-33.452547,-70.570554,314,23724.8993554,11,7,13113,13,33615096.9517,28343.6615083,"Región Metropolitana de Santiago","La Reina","Santiago",11,88918,8083.45454545455
"86","Supermercado Ekono - Av. Carlos Ossandón","Av. Carlos Ossandón N° 1220",-33.441662,-70.543271,314,23724.8993554,11,7,13113,13,33615096.9517,28343.6615083,"Región Metropolitana de Santiago","La Reina","Santiago",11,88918,8083.45454545455
"87","Supermercado Ekono - José Arrieta","José Arrieta N° 6682",-33.462382545,-70.5606607851,314,23724.8993554,11,7,13113,13,33615096.9517,28343.6615083,"Región Metropolitana de Santiago","La Reina","Santiago",11,88918,8083.45454545455
"88","Supermercado Santa Isabel - Carlos Ossandón ","Av. Carlos Ossandón Nº 1301",-33.44138,-70.543217,314,23724.8993554,11,7,13113,13,33615096.9517,28343.6615083,"Región Metropolitana de Santiago","La Reina","Santiago",11,88918,8083.45454545455
"89","Supermercado Tottus - Mall Plaza Egaña","Av. Larraín N° 5862",-33.4533,-70.569009,314,23724.8993554,11,7,13113,13,33615096.9517,28343.6615083,"Región Metropolitana de Santiago","La Reina","Santiago",11,88918,8083.45454545455
"90","Supermercado Hiper Líder - Jorge Alessandri","Av. Jorge Alessandri Nº 1131",-33.462627,-70.547318,314,23724.8993554,11,7,13113,13,33615096.9517,28343.6615083,"Región Metropolitana de Santiago","La Reina","Santiago",11,88918,8083.45454545455
"91","Supermercado Ekono - Av. José Arrieta","Av. Jose Arrieta N° 6682",-33.462503,-70.560697,314,23724.8993554,11,7,13113,13,33615096.9517,28343.6615083,"Región Metropolitana de Santiago","La Reina","Santiago",11,88918,8083.45454545455
"92","Supermercado Líder - Príncipe de Gales / Valenzuela Llanos","Av. Príncipe de Gales Nº 9140",-33.441229,-70.536089,314,23724.8993554,11,7,13113,13,33615096.9517,28343.6615083,"Región Metropolitana de Santiago","La Reina","Santiago",11,88918,8083.45454545455
"93","Supermercado Santa Isabel - Larraín","Av. Larraín Nº 6677",-33.4524673,-70.5607717,314,23724.8993554,11,7,13113,13,33615096.9517,28343.6615083,"Región Metropolitana de Santiago","La Reina","Santiago",11,88918,8083.45454545455
"94","Supermercado Unimarc - Príncipe de Gales","Príncipe de Gales N° 7271",-33.438911,-70.556606,314,23724.8993554,11,7,13113,13,33615096.9517,28343.6615083,"Región Metropolitana de Santiago","La Reina","Santiago",11,88918,8083.45454545455
"95","Supermercado Ekono - Monjitas","Monjitas N° 738",-33.436969,-70.647682,333,24644.0186193,10,7,13101,13,33376783.7727,29171.6095001,"Región Metropolitana de Santiago","Santiago","Santiago",62,372760,6012.25806451613
"96","Supermercado Santa Isabel - Portugal / Alameda","Av. Portugal Nº 12",-33.440463,-70.6401436,333,24644.0186193,10,7,13101,13,33376783.7727,29171.6095001,"Región Metropolitana de Santiago","Santiago","Santiago",62,372760,6012.25806451613
"97","Supermercado Ekono - Brasil","Brasil N° 66",-33.4450640292,-70.6645979897,333,24644.0186193,10,7,13101,13,33376783.7727,29171.6095001,"Región Metropolitana de Santiago","Santiago","Santiago",62,372760,6012.25806451613
"98","Supermercado Ekono - Grajales","Grajales N° 2146",-33.451715,-70.665191,333,24644.0186193,10,7,13101,13,33376783.7727,29171.6095001,"Región Metropolitana de Santiago","Santiago","Santiago",62,372760,6012.25806451613
"99","Supermercado Santa Isabel - Ismael Valdés Vergara","Ismael Valdés Vergara Nº 838",-33.43376,-70.64942,333,24644.0186193,10,7,13101,13,33376783.7727,29171.6095001,"Región Metropolitana de Santiago","Santiago","Santiago",62,372760,6012.25806451613
"100","Supermercado Líder Express - San Pablo","San Pablo N° 2362",-33.43499,-70.670262,333,24644.0186193,10,7,13101,13,33376783.7727,29171.6095001,"Región Metropolitana de Santiago","Santiago","Santiago",62,372760,6012.25806451613
"101","Supermercado Santa Isabel - Ismael Valdés Vergara","Av. Ismael Valdés Vergara N° 838",-33.43376,-70.64942,333,24644.0186193,10,7,13101,13,33376783.7727,29171.6095001,"Región Metropolitana de Santiago","Santiago","Santiago",62,372760,6012.25806451613
"102","Supermercados Alameda","Av. Libertador Bernardo O'Higgins Nº 2215",-33.4479292738,-70.6667675134,333,24644.0186193,10,7,13101,13,33376783.7727,29171.6095001,"Región Metropolitana de Santiago","Santiago","Santiago",62,372760,6012.25806451613
"103","Supermercado Santa Isabel - Bandera","Bandera Nº 201",-33.440872,-70.652109,333,24644.0186193,10,7,13101,13,33376783.7727,29171.6095001,"Región Metropolitana de Santiago","Santiago","Santiago",62,372760,6012.25806451613
"104","Supermercado Líder Express - Santo Domingo","Santo Domingo N° 1031",-33.436209,-70.651641,333,24644.0186193,10,7,13101,13,33376783.7727,29171.6095001,"Región Metropolitana de Santiago","Santiago","Santiago",62,372760,6012.25806451613
"105","Supermercado Ekono - Av. San Pablo / Esperanza","Av. San Pablo N° 2902",-33.435328,-70.676112,333,24644.0186193,10,7,13101,13,33376783.7727,29171.6095001,"Región Metropolitana de Santiago","Santiago","Santiago",62,372760,6012.25806451613
"106","Supermercados Erbi - San Diego","San Diego N° 652",-33.4534547162,-70.6499631444,333,24644.0186193,10,7,13101,13,33376783.7727,29171.6095001,"Región Metropolitana de Santiago","Santiago","Santiago",62,372760,6012.25806451613
"107","Supermercado Montserrat - Libertad","Libertad N° 624",-33.43773,-70.674464,333,24644.0186193,10,7,13101,13,33376783.7727,29171.6095001,"Región Metropolitana de Santiago","Santiago","Santiago",62,372760,6012.25806451613
"108","Supermercado La Estrella","San Alfonso N° 1299",-33.46560171,-70.672639,333,24644.0186193,10,7,13101,13,33376783.7727,29171.6095001,"Región Metropolitana de Santiago","Santiago","Santiago",62,372760,6012.25806451613
"109","Supermercados Erbi - San Diego 2","San Diego Nº 936",-33.4576433333,-70.6494627778,333,24644.0186193,10,7,13101,13,33376783.7727,29171.6095001,"Región Metropolitana de Santiago","Santiago","Santiago",62,372760,6012.25806451613
"110","Supermercado Líder Express - Huérfanos","Paseo Huérfanos N° 827",-33.439382,-70.648555,333,24644.0186193,10,7,13101,13,33376783.7727,29171.6095001,"Región Metropolitana de Santiago","Santiago","Santiago",62,372760,6012.25806451613
"111","Supermercado Santa Isabel - Vicuña Mackenna / Franklin","Av. Vicuña Mackenna Nº 2005",-33.4700118,-70.6263542,333,24644.0186193,10,7,13101,13,33376783.7727,29171.6095001,"Región Metropolitana de Santiago","Santiago","Santiago",62,372760,6012.25806451613
"112","Supermercado Shangai Hualian ","Grajales Nº 2944",-33.4542097,-70.6765049,333,24644.0186193,10,7,13101,13,33376783.7727,29171.6095001,"Región Metropolitana de Santiago","Santiago","Santiago",62,372760,6012.25806451613
"113","Supermercado Santa Isabel - Libertador Bernardo O'Higgins / Amunátegui","Av. Libertador Bernardo O'Higgins Nº 1449",-33.445042,-70.656512,333,24644.0186193,10,7,13101,13,33376783.7727,29171.6095001,"Región Metropolitana de Santiago","Santiago","Santiago",62,372760,6012.25806451613
"114","Supermercados S Y P - Monjitas","Monjitas Nº 870",-33.4369,-70.6488,333,24644.0186193,10,7,13101,13,33376783.7727,29171.6095001,"Región Metropolitana de Santiago","Santiago","Santiago",62,372760,6012.25806451613
"115","Supermercado Líder Express - Santa Rosa / Tarapacá","Av. Santa Rosa Nº 115",-33.445392,-70.645534,333,24644.0186193,10,7,13101,13,33376783.7727,29171.6095001,"Región Metropolitana de Santiago","Santiago","Santiago",62,372760,6012.25806451613
"116","Supermercado Los Alpes - Plaza Italia ","Av. Vicuña Mackenna N° 17",-33.4380122222,-70.6351790278,333,24644.0186193,10,7,13101,13,33376783.7727,29171.6095001,"Región Metropolitana de Santiago","Santiago","Santiago",62,372760,6012.25806451613
"117","Tottus- Catedral","Catedral N°1850",-33.438728,-70.662925,333,24644.0186193,10,7,13101,13,33376783.7727,29171.6095001,"Región Metropolitana de Santiago","Santiago","Santiago",62,372760,6012.25806451613
"118","Supermercado Los Alpes - Manuel Antonio Matta","Av. Manuel Antonio Matta N° 303",-33.456158,-70.633348,333,24644.0186193,10,7,13101,13,33376783.7727,29171.6095001,"Región Metropolitana de Santiago","Santiago","Santiago",62,372760,6012.25806451613
"119","Supermercado","San Martín Nº 35",-33.44352,-70.657524,333,24644.0186193,10,7,13101,13,33376783.7727,29171.6095001,"Región Metropolitana de Santiago","Santiago","Santiago",62,372760,6012.25806451613
"120","Supermercados Erbi - Santa Rosa","Santa Rosa N° 905",-33.4560045113,-70.6437118527,333,24644.0186193,10,7,13101,13,33376783.7727,29171.6095001,"Región Metropolitana de Santiago","Santiago","Santiago",62,372760,6012.25806451613
"121","Supermercado Líder Express - Merced","Merced N° 560",-33.437905,-70.645071,333,24644.0186193,10,7,13101,13,33376783.7727,29171.6095001,"Región Metropolitana de Santiago","Santiago","Santiago",62,372760,6012.25806451613
"122","Supermercado Los Alpes - Alameda","Av. Libertador Bernardo O'Higgins N° 1340",-33.445254,-70.65483,333,24644.0186193,10,7,13101,13,33376783.7727,29171.6095001,"Región Metropolitana de Santiago","Santiago","Santiago",62,372760,6012.25806451613
"123","Supermercado Unimarc - Huérfanos","Huérfanos N° 1052 ",-33.439786,-70.65165,333,24644.0186193,10,7,13101,13,33376783.7727,29171.6095001,"Región Metropolitana de Santiago","Santiago","Santiago",62,372760,6012.25806451613
"124","Supermercado Santa Isabel - Compañía","Compañía de Jesús N° 2305",-33.440298,-70.668637,333,24644.0186193,10,7,13101,13,33376783.7727,29171.6095001,"Región Metropolitana de Santiago","Santiago","Santiago",62,372760,6012.25806451613
"125","Supermercado Líder - Portugal ","Av. Portugal N° 634",-33.450073,-70.634672,333,24644.0186193,10,7,13101,13,33376783.7727,29171.6095001,"Región Metropolitana de Santiago","Santiago","Santiago",62,372760,6012.25806451613
"126","Supermercado El Diamante Ltda.","Club Hípico N° 699 ",-33.45631926,-70.66518989,333,24644.0186193,10,7,13101,13,33376783.7727,29171.6095001,"Región Metropolitana de Santiago","Santiago","Santiago",62,372760,6012.25806451613
"127","Supermercados Erbi - Portugal 1","Av. Portugal N° 472",-33.447933,-70.635338,333,24644.0186193,10,7,13101,13,33376783.7727,29171.6095001,"Región Metropolitana de Santiago","Santiago","Santiago",62,372760,6012.25806451613
"128","Monseratt - Monjitas","Monjitas  N° 729",-33.436807,-70.647589,333,24644.0186193,10,7,13101,13,33376783.7727,29171.6095001,"Región Metropolitana de Santiago","Santiago","Santiago",62,372760,6012.25806451613
"129","Supermercado Santa Isabel - Diagonal Paraguay / Portugal","Av. Portugal Nº 112",-33.4432638,-70.637652,333,24644.0186193,10,7,13101,13,33376783.7727,29171.6095001,"Región Metropolitana de Santiago","Santiago","Santiago",62,372760,6012.25806451613
"130","Tottus - Vicuña Mackenna","Av. Vicuña Mackenna N°  665",-33.450048,-70.631648,333,24644.0186193,10,7,13101,13,33376783.7727,29171.6095001,"Región Metropolitana de Santiago","Santiago","Santiago",62,372760,6012.25806451613
"131","Supermercado Santa Isabel","Huérfanos Nº 1437",-33.440232,-70.65707,333,24644.0186193,10,7,13101,13,33376783.7727,29171.6095001,"Región Metropolitana de Santiago","Santiago","Santiago",62,372760,6012.25806451613
"132","Santa Isabel - Santa Rosa","Av. Santa Rosa Nº 2055",-33.472393,-70.642116,333,24644.0186193,10,7,13101,13,33376783.7727,29171.6095001,"Región Metropolitana de Santiago","Santiago","Santiago",62,372760,6012.25806451613
"133","Supermercado Ekono - Lira","Lira N° 464",-33.448803,-70.63914,333,24644.0186193,10,7,13101,13,33376783.7727,29171.6095001,"Región Metropolitana de Santiago","Santiago","Santiago",62,372760,6012.25806451613
"134","Supermercado Tottus - Nataniel Cox","Nataliel Cox N° 620",-33.453227,-70.652669,333,24644.0186193,10,7,13101,13,33376783.7727,29171.6095001,"Región Metropolitana de Santiago","Santiago","Santiago",62,372760,6012.25806451613
"135","Ekono - Av. Brasil","Av. Brasil N° 66",-33.445094,-70.665001,333,24644.0186193,10,7,13101,13,33376783.7727,29171.6095001,"Región Metropolitana de Santiago","Santiago","Santiago",62,372760,6012.25806451613
"136","Supermercado Tottus","Nataniel Cox ",-33.4543733,-70.6524705,333,24644.0186193,10,7,13101,13,33376783.7727,29171.6095001,"Región Metropolitana de Santiago","Santiago","Santiago",62,372760,6012.25806451613
"137","Supermercados Unimarc","Av. Portugal N° 579",-33.449244,-70.635036,333,24644.0186193,10,7,13101,13,33376783.7727,29171.6095001,"Región Metropolitana de Santiago","Santiago","Santiago",62,372760,6012.25806451613
"138","Santa Isabel - San Diego","San Diego Nº 235",-33.448112,-70.650962,333,24644.0186193,10,7,13101,13,33376783.7727,29171.6095001,"Región Metropolitana de Santiago","Santiago","Santiago",62,372760,6012.25806451613
"139","Supermercados Montserrat - Zenteno","Zenteno N° 1385",-33.4637433011,-70.6503173446,333,24644.0186193,10,7,13101,13,33376783.7727,29171.6095001,"Región Metropolitana de Santiago","Santiago","Santiago",62,372760,6012.25806451613
"140","Supermercado Ekono - Portugal","Portugal N° 225",-33.445402,-70.636398,333,24644.0186193,10,7,13101,13,33376783.7727,29171.6095001,"Región Metropolitana de Santiago","Santiago","Santiago",62,372760,6012.25806451613
"141","Supermercado Montserrat - Monjitas","Monjitas N° 739",-33.436941,-70.647709,333,24644.0186193,10,7,13101,13,33376783.7727,29171.6095001,"Región Metropolitana de Santiago","Santiago","Santiago",62,372760,6012.25806451613
"142","Supemercado Líder Express - 10 de Julio","Av. 10 de Julio Huamachuco N° 1625",-33.454516,-70.657233,333,24644.0186193,10,7,13101,13,33376783.7727,29171.6095001,"Región Metropolitana de Santiago","Santiago","Santiago",62,372760,6012.25806451613
"143","Supermercado Ekono - San Diego / Tarapacá","San Diego N° 219",-33.4478447181,-70.651120836,333,24644.0186193,10,7,13101,13,33376783.7727,29171.6095001,"Región Metropolitana de Santiago","Santiago","Santiago",62,372760,6012.25806451613
"144","Supermercado Ekono - Metro Unión Latinoamericana / Salida Norte","Av. Libertador Bernardo O'Higgins N° 2843",-33.449259,-70.673514,333,24644.0186193,10,7,13101,13,33376783.7727,29171.6095001,"Región Metropolitana de Santiago","Santiago","Santiago",62,372760,6012.25806451613
"145","Supermercado Ekono - San Diego / Arauco","San Diego N° 2027",-33.472248,-70.6484,333,24644.0186193,10,7,13101,13,33376783.7727,29171.6095001,"Región Metropolitana de Santiago","Santiago","Santiago",62,372760,6012.25806451613
"146","Ekono","Cúrico N° 517",-33.4460089,-70.64287399,333,24644.0186193,10,7,13101,13,33376783.7727,29171.6095001,"Región Metropolitana de Santiago","Santiago","Santiago",62,372760,6012.25806451613
"147","Supermercado Unimarc - Av. Portugal / Marcoleta","Av. Portugal N° 56",-33.44169,-70.638942,333,24644.0186193,10,7,13101,13,33376783.7727,29171.6095001,"Región Metropolitana de Santiago","Santiago","Santiago",62,372760,6012.25806451613
"148","Supermercado Unimarc - Mall Espacio M","Compañía de Jesús N° 1214",-33.438764,-70.653836,333,24644.0186193,10,7,13101,13,33376783.7727,29171.6095001,"Región Metropolitana de Santiago","Santiago","Santiago",62,372760,6012.25806451613
"149","Supermercado Erbi - San Pablo","San Pablo N° 3271",-33.4356619835,-70.6799531845,333,24644.0186193,10,7,13101,13,33376783.7727,29171.6095001,"Región Metropolitana de Santiago","Santiago","Santiago",62,372760,6012.25806451613
"150","Supermercado Santa Isabel - Matta / Sierra Bella","Manuel Antonio Matta Nº 437",-33.4580781,-70.6373606,333,24644.0186193,10,7,13101,13,33376783.7727,29171.6095001,"Región Metropolitana de Santiago","Santiago","Santiago",62,372760,6012.25806451613
"151","Supermercado Tottus - Vicuña Mackenna","Av. Vicuña Mackenna N° 665",-33.4500368796,-70.6316829234,333,24644.0186193,10,7,13101,13,33376783.7727,29171.6095001,"Región Metropolitana de Santiago","Santiago","Santiago",62,372760,6012.25806451613
"152","Supermercado Ekono - Curicó","Curicó N° 516",-33.4462912538,-70.64274337,333,24644.0186193,10,7,13101,13,33376783.7727,29171.6095001,"Región Metropolitana de Santiago","Santiago","Santiago",62,372760,6012.25806451613
"153","Supermercado Santa Isabel - Almirante Latorre","Almirante Latorre Nº 310",-33.451661,-70.664508,333,24644.0186193,10,7,13101,13,33376783.7727,29171.6095001,"Región Metropolitana de Santiago","Santiago","Santiago",62,372760,6012.25806451613
"154","Supermercado Santa Isabel - Portugal","Portugal Nº 112",-33.4432638,-70.637652,333,24644.0186193,10,7,13101,13,33376783.7727,29171.6095001,"Región Metropolitana de Santiago","Santiago","Santiago",62,372760,6012.25806451613
"155","Supermercado Ekono - Bandera / Av. San Pablo","Bandera N° 814",-33.434171,-70.653089,333,24644.0186193,10,7,13101,13,33376783.7727,29171.6095001,"Región Metropolitana de Santiago","Santiago","Santiago",62,372760,6012.25806451613
"156","Supermercado Unimarc - Estado","Estado N° 85",-33.441225,-70.649274,333,24644.0186193,10,7,13101,13,33376783.7727,29171.6095001,"Región Metropolitana de Santiago","Santiago","Santiago",62,372760,6012.25806451613
"157","Supermercado Ekono - Presidente Salvador Allende","Presidente Salvador Allende N° 367",-33.61854,-70.585228,292,48961.6548396,12,7,13201,13,126944640.332,58874.136921,"Región Metropolitana de Santiago","Puente Alto","Cordillera",29,546689,18851.3448275862
"158","Supermercado Ekono - José Luis Coo","José Luis Coo N° 158",-33.608988,-70.573927,292,48961.6548396,12,7,13201,13,126944640.332,58874.136921,"Región Metropolitana de Santiago","Puente Alto","Cordillera",29,546689,18851.3448275862
"159","Supermercado Ekono - Luis Matte Larraín / Carlos Aguirre Luco","Luis Matte Larraín N° 0286",-33.585775516,-70.5773309473,292,48961.6548396,12,7,13201,13,126944640.332,58874.136921,"Región Metropolitana de Santiago","Puente Alto","Cordillera",29,546689,18851.3448275862
"160","Supermercado Ekono - Eyzaguirre","Eyzaguirre N° 1310",-33.609646,-70.54021,292,48961.6548396,12,7,13201,13,126944640.332,58874.136921,"Región Metropolitana de Santiago","Puente Alto","Cordillera",29,546689,18851.3448275862
"161","Supermercado Montserrat - Av. México ","Av. México N° 1915",-33.593818,-70.559384,292,48961.6548396,12,7,13201,13,126944640.332,58874.136921,"Región Metropolitana de Santiago","Puente Alto","Cordillera",29,546689,18851.3448275862
"162","Supermercado Mayorista Alvi - Concha y Toro / Gabriela Poniente","Av. Concha y Toro N° 3088",-33.580264,-70.581774,292,48961.6548396,12,7,13201,13,126944640.332,58874.136921,"Región Metropolitana de Santiago","Puente Alto","Cordillera",29,546689,18851.3448275862
"163","Supermercado Montserrat - Puente Alto","México Nº 1915",-33.59498,-70.559145,292,48961.6548396,12,7,13201,13,126944640.332,58874.136921,"Región Metropolitana de Santiago","Puente Alto","Cordillera",29,546689,18851.3448275862
"164","ekono ciudad del sol","Juan de Dios Malbran N° 1750",-33.595364,-70.590403,292,48961.6548396,12,7,13201,13,126944640.332,58874.136921,"Región Metropolitana de Santiago","Puente Alto","Cordillera",29,546689,18851.3448275862
"165","Supermercado Tottus - Puente Alto II","Eyzaguirre N° 0105",-33.6126089478365,-70.5740582942963,292,48961.6548396,12,7,13201,13,126944640.332,58874.136921,"Región Metropolitana de Santiago","Puente Alto","Cordillera",29,546689,18851.3448275862
"166","Supermercado Santa Isabel - Santa Rosa 13015","Av. Santa Rosa Nº13015",-33.605874,-70.626848,292,48961.6548396,12,7,13201,13,126944640.332,58874.136921,"Región Metropolitana de Santiago","Puente Alto","Cordillera",29,546689,18851.3448275862
"167","Supermercados Erbi - Puente Alto","Concha y Toro N° 37",-33.6119321942,-70.5752937931,292,48961.6548396,12,7,13201,13,126944640.332,58874.136921,"Región Metropolitana de Santiago","Puente Alto","Cordillera",29,546689,18851.3448275862
"168","Supermercado Líder - Mall Plaza Tobalaba","Av. Los Toros N° 05441",-33.5668003175,-70.5590830159,292,48961.6548396,12,7,13201,13,126944640.332,58874.136921,"Región Metropolitana de Santiago","Puente Alto","Cordillera",29,546689,18851.3448275862
"169","Supermercado Unimarc - Av. Las Nieves","Av. Las Nieves N° 02251",-33.5899973065715,-70.5564805537882,292,48961.6548396,12,7,13201,13,126944640.332,58874.136921,"Región Metropolitana de Santiago","Puente Alto","Cordillera",29,546689,18851.3448275862
"170","Supermercados Montserrat - Puente Alto Eyzaguirre","Eyzaguirre Nº 02051",-33.6090484749,-70.5395563919,292,48961.6548396,12,7,13201,13,126944640.332,58874.136921,"Región Metropolitana de Santiago","Puente Alto","Cordillera",29,546689,18851.3448275862
"171","Jumbo plaza puente","Santo Domingo N° 67",-33.611716,-70.577097,292,48961.6548396,12,7,13201,13,126944640.332,58874.136921,"Región Metropolitana de Santiago","Puente Alto","Cordillera",29,546689,18851.3448275862
"172","Supermercado Jumbo - Concha y Toro","Av. Concha y Toro N° 3854",-33.570966,-70.58464,292,48961.6548396,12,7,13201,13,126944640.332,58874.136921,"Región Metropolitana de Santiago","Puente Alto","Cordillera",29,546689,18851.3448275862
"173","Ekono - Juan de Dios Malebrán","Juan de Dios Malbran N° 1750",-33.595364,-70.590403,292,48961.6548396,12,7,13201,13,126944640.332,58874.136921,"Región Metropolitana de Santiago","Puente Alto","Cordillera",29,546689,18851.3448275862
"174","Supermercado Ekono - Luis Matte Larraín / Romina","Luis Matte Larraín N° 1714",-33.5884316,-70.6001402,292,48961.6548396,12,7,13201,13,126944640.332,58874.136921,"Región Metropolitana de Santiago","Puente Alto","Cordillera",29,546689,18851.3448275862
"175","Supermercado Tottus - Puente Alto I","Av. Concha y Toro N° 1477",-33.597944,-70.577931,292,48961.6548396,12,7,13201,13,126944640.332,58874.136921,"Región Metropolitana de Santiago","Puente Alto","Cordillera",29,546689,18851.3448275862
"176","Supermercado Montserrat - Av. Gabriela","Av. Gabriela N° 02710",-33.5749380425,-70.5558248138,292,48961.6548396,12,7,13201,13,126944640.332,58874.136921,"Región Metropolitana de Santiago","Puente Alto","Cordillera",29,546689,18851.3448275862
"177","Supermercado Montserrat - Santa Josefina ","Santa Josefina N° 40",-33.609342,-70.576405,292,48961.6548396,12,7,13201,13,126944640.332,58874.136921,"Región Metropolitana de Santiago","Puente Alto","Cordillera",29,546689,18851.3448275862
"178","Supermercado Líder Express - Diego Portales","Av. Diego Portales N° 6303 ",-33.560062,-70.548711,292,48961.6548396,12,7,13201,13,126944640.332,58874.136921,"Región Metropolitana de Santiago","Puente Alto","Cordillera",29,546689,18851.3448275862
"179","Supermercado Líder Express - Nonato Coo","Nonato Coo Nº 3108",-33.58162455,-70.56913035,292,48961.6548396,12,7,13201,13,126944640.332,58874.136921,"Región Metropolitana de Santiago","Puente Alto","Cordillera",29,546689,18851.3448275862
"180","Supermercado Ekono - Puente Alto","Gabriela Oriente N° 01573",-33.5755426096,-70.561371142,292,48961.6548396,12,7,13201,13,126944640.332,58874.136921,"Región Metropolitana de Santiago","Puente Alto","Cordillera",29,546689,18851.3448275862
"181","Supermercado Unimarc - Av. Concha y Toro","Av. Concha y Toro N° 3193",-33.580537,-70.581325,292,48961.6548396,12,7,13201,13,126944640.332,58874.136921,"Región Metropolitana de Santiago","Puente Alto","Cordillera",29,546689,18851.3448275862
"182","Supermercado Montserrat - Balmaceda","Balmaceda N° 354",-33.60793,-70.575335,292,48961.6548396,12,7,13201,13,126944640.332,58874.136921,"Región Metropolitana de Santiago","Puente Alto","Cordillera",29,546689,18851.3448275862
"183","Supermercado Tottus - Mall Plaza Tobalaba","Av. Camilo Henríquez N° 3296",-33.569835,-70.55669,292,48961.6548396,12,7,13201,13,126944640.332,58874.136921,"Región Metropolitana de Santiago","Puente Alto","Cordillera",29,546689,18851.3448275862
"184","Supermercado Santa Isabel - Concha y Toro","Av. Concha y Toro Nº 1036",-33.601242,-70.57761,292,48961.6548396,12,7,13201,13,126944640.332,58874.136921,"Región Metropolitana de Santiago","Puente Alto","Cordillera",29,546689,18851.3448275862
"185","Supermercado Líder - Concha y Toro / Clavero","Av. Concha y Toro Nº 1149",-33.6015507527,-70.5771360215,292,48961.6548396,12,7,13201,13,126944640.332,58874.136921,"Región Metropolitana de Santiago","Puente Alto","Cordillera",29,546689,18851.3448275862
"186","S Y P Supermercados","Pedro Fontova Nº 6251",-33.3649,-70.6697,308,32111.2658183,9,7,13107,13,64319628.3659,38432.0997603,"Región Metropolitana de Santiago","Huechuraba","Santiago",9,94856,10539.5555555556
"187","Hiper Huechuraba","Av. Américo Vespucio N° 1737",-33.3665644395,-70.6785552189,308,32111.2658183,9,7,13107,13,64319628.3659,38432.0997603,"Región Metropolitana de Santiago","Huechuraba","Santiago",9,94856,10539.5555555556
"188","Supermercado Express Lider - Antehuemu","Antehuenu N° 7309",-33.353714,-70.669716,308,32111.2658183,9,7,13107,13,64319628.3659,38432.0997603,"Región Metropolitana de Santiago","Huechuraba","Santiago",9,94856,10539.5555555556
"189","Tottus Huechuraba","Santa Marta de Huechuraba N°7.300",-33.353869,-70.677665,308,32111.2658183,9,7,13107,13,64319628.3659,38432.0997603,"Región Metropolitana de Santiago","Huechuraba","Santiago",9,94856,10539.5555555556
"190","Supermercado Líder - Ciudad Empresarial","Av. del Valle Nº 725",-33.3905594615,-70.6132936331,308,32111.2658183,9,7,13107,13,64319628.3659,38432.0997603,"Región Metropolitana de Santiago","Huechuraba","Santiago",9,94856,10539.5555555556
"191","Supermercado Líder Express - Pedro Fontova / Guanaco","Av. Pedro Fontova N° 7455",-33.3522777,-70.670546,308,32111.2658183,9,7,13107,13,64319628.3659,38432.0997603,"Región Metropolitana de Santiago","Huechuraba","Santiago",9,94856,10539.5555555556
"192","Supermercado Líder - Mall Plaza Norte","Av. Américo Vespucio Nº 1737 ",-33.367924,-70.677572,308,32111.2658183,9,7,13107,13,64319628.3659,38432.0997603,"Región Metropolitana de Santiago","Huechuraba","Santiago",9,94856,10539.5555555556
"193","Supermercado Unimarc - Av. Pedro Fontova","Av. Pedro Fontova N° 7626",-33.3491351263854,-70.6702618902826,308,32111.2658183,9,7,13107,13,64319628.3659,38432.0997603,"Región Metropolitana de Santiago","Huechuraba","Santiago",9,94856,10539.5555555556
"194","Supermercado Santa Isabel - Pedro Fontova","Av. Pedro Fontova Nº 7789",-33.34763,-70.670401,308,32111.2658183,9,7,13107,13,64319628.3659,38432.0997603,"Región Metropolitana de Santiago","Huechuraba","Santiago",9,94856,10539.5555555556
"195","Supermercados Erbi - NOS","Av. Portales N° 4290",-33.6389285557,-70.7079575418,297,86349.6115156,14,7,13401,13,222758600.127,103993.594041,"Región Metropolitana de Santiago","San Bernardo","Maipo",23,282763,12294.0434782609
"196","Supermercado Comercial Castro","Av. Colón Nº 853",-33.5941339855,-70.6840911594,297,86349.6115156,14,7,13401,13,222758600.127,103993.594041,"Región Metropolitana de Santiago","San Bernardo","Maipo",23,282763,12294.0434782609
"197","Tottus- Rosario","Pje. Rosario N°934",-33.578191,-70.704035,297,86349.6115156,14,7,13401,13,222758600.127,103993.594041,"Región Metropolitana de Santiago","San Bernardo","Maipo",23,282763,12294.0434782609
"198","Multialianza de Supermercados Mas S A","Av. General Velásquez  N° 9981 ",-33.54417652,-70.70902678,297,86349.6115156,14,7,13401,13,222758600.127,103993.594041,"Región Metropolitana de Santiago","San Bernardo","Maipo",23,282763,12294.0434782609
"199","Supermercado El Rosario","Santa Marta  N° 1206 ",-33.59222815,-70.6745994,297,86349.6115156,14,7,13401,13,222758600.127,103993.594041,"Región Metropolitana de Santiago","San Bernardo","Maipo",23,282763,12294.0434782609
"200","Hiper Líder","San José N° 69",-33.597581,-70.698242,297,86349.6115156,14,7,13401,13,222758600.127,103993.594041,"Región Metropolitana de Santiago","San Bernardo","Maipo",23,282763,12294.0434782609
"201","Supermarcado Totus","Calle O´Higgins Nº 528",-33.591663,-70.704224,297,86349.6115156,14,7,13401,13,222758600.127,103993.594041,"Región Metropolitana de Santiago","San Bernardo","Maipo",23,282763,12294.0434782609
"202","Supermarcado Totus","Calle Higgins Nº 528",-33.5916066667,-70.7049116667,297,86349.6115156,14,7,13401,13,222758600.127,103993.594041,"Región Metropolitana de Santiago","San Bernardo","Maipo",23,282763,12294.0434782609
"203","supermercado","av. central 711",-33.620529,-70.68766,297,86349.6115156,14,7,13401,13,222758600.127,103993.594041,"Región Metropolitana de Santiago","San Bernardo","Maipo",23,282763,12294.0434782609
"204","Supermercado ","Almirante Riveros Nº 01202",-33.615864,-70.684151,297,86349.6115156,14,7,13401,13,222758600.127,103993.594041,"Región Metropolitana de Santiago","San Bernardo","Maipo",23,282763,12294.0434782609
"205","Supermercado Líder Express - Mall Paseo San Bernardo","Eyzaguirre N° 650",-33.595333,-70.706279,297,86349.6115156,14,7,13401,13,222758600.127,103993.594041,"Región Metropolitana de Santiago","San Bernardo","Maipo",23,282763,12294.0434782609
"206","Supermercado Tottus - San Bernardo / Estación","Arturo Prat N° 117",-33.594156,-70.698939,297,86349.6115156,14,7,13401,13,222758600.127,103993.594041,"Región Metropolitana de Santiago","San Bernardo","Maipo",23,282763,12294.0434782609
"207","Supermercado Jumbo - San Bernardo","Av. Portales N° 3698",-33.636386,-70.707187,297,86349.6115156,14,7,13401,13,222758600.127,103993.594041,"Región Metropolitana de Santiago","San Bernardo","Maipo",23,282763,12294.0434782609
"208","Supermercado Hiper Líder - Los Morros","Av. Ernesto Riquelme Nº 69",-33.59902,-70.675325,297,86349.6115156,14,7,13401,13,222758600.127,103993.594041,"Región Metropolitana de Santiago","San Bernardo","Maipo",23,282763,12294.0434782609
"209","Supermercado Tottus - San Bernardo / Eyzaguirre","O'Higgins N° 528",-33.5916066667,-70.7049116667,297,86349.6115156,14,7,13401,13,222758600.127,103993.594041,"Región Metropolitana de Santiago","San Bernardo","Maipo",23,282763,12294.0434782609
"210","Supermercado Líder - Presidente Jorge Alessandri Rodríguez / Las Acacias","Presidente Jorge Alessandri Rodríguez N° 12434",-33.557871,-70.709847,297,86349.6115156,14,7,13401,13,222758600.127,103993.594041,"Región Metropolitana de Santiago","San Bernardo","Maipo",23,282763,12294.0434782609
"211","Supermercado Líder - Mall Plaza Sur","Presidente Jorge Alessandri Rodríguez Nº 20040",-33.629206,-70.713433,297,86349.6115156,14,7,13401,13,222758600.127,103993.594041,"Región Metropolitana de Santiago","San Bernardo","Maipo",23,282763,12294.0434782609
"212","Supermercado Montserrat - Covadonga","Covadonga Nº 225",-33.5953006423,-70.7007152321,297,86349.6115156,14,7,13401,13,222758600.127,103993.594041,"Región Metropolitana de Santiago","San Bernardo","Maipo",23,282763,12294.0434782609
"213","Supermercado Unimarc - Av. Padre Hurtado","Av. Padre Hurtado N° 13694",-33.61691,-70.682219,297,86349.6115156,14,7,13401,13,222758600.127,103993.594041,"Región Metropolitana de Santiago","San Bernardo","Maipo",23,282763,12294.0434782609
"214","Supermercado Tottus - San Bernardo","San Martí­n N° 174",-33.584024,-70.694442,297,86349.6115156,14,7,13401,13,222758600.127,103993.594041,"Región Metropolitana de Santiago","San Bernardo","Maipo",23,282763,12294.0434782609
"215","Supermercado Ekono - San Bernardo","Mateo de Toro y Zambrano N° 94",-33.6128490564,-70.7057001744,297,86349.6115156,14,7,13401,13,222758600.127,103993.594041,"Región Metropolitana de Santiago","San Bernardo","Maipo",23,282763,12294.0434782609
"216","Supermercado Santa Isabel - Eucaliptus","Eucaliptus Nº 273",-33.6070358,-70.7074431,297,86349.6115156,14,7,13401,13,222758600.127,103993.594041,"Región Metropolitana de Santiago","San Bernardo","Maipo",23,282763,12294.0434782609
"217","Super Jumbito","Pasaje Francisco Becerra  N° 2996 ",-33.62653173,-70.69972456,297,86349.6115156,14,7,13401,13,222758600.127,103993.594041,"Región Metropolitana de Santiago","San Bernardo","Maipo",23,282763,12294.0434782609
"218"," Supermercado S y P","Av. Américo Vespucio N° 2488 ",-33.518822,-70.70578,303,20923.8592353,8,7,13102,13,23962251.3995,24881.8165941,"Región Metropolitana de Santiago","Cerrillos","Santiago",9,76602,8511.33333333333
"219","Supermercados Erbi - Cerrillos 2","Paseo Los Estudiantes N° 7",-33.5111256,-70.7209897,303,20923.8592353,8,7,13102,13,23962251.3995,24881.8165941,"Región Metropolitana de Santiago","Cerrillos","Santiago",9,76602,8511.33333333333
"220","Supermercados Erbi - Cerrillos 1","San Juan N° 7209",-33.5000681375,-70.7193807766,303,20923.8592353,8,7,13102,13,23962251.3995,24881.8165941,"Región Metropolitana de Santiago","Cerrillos","Santiago",9,76602,8511.33333333333
"221","Supermercado Tottus - Mall Plaza Oeste","Av. Américo Vespucio N° 1501",-33.5151368,-70.7172585,303,20923.8592353,8,7,13102,13,23962251.3995,24881.8165941,"Región Metropolitana de Santiago","Cerrillos","Santiago",9,76602,8511.33333333333
"222","Hipermercado Lonquen LTDA.","Av. Américo Vespucio  N° 2500 ",-33.51786261,-70.7085282,303,20923.8592353,8,7,13102,13,23962251.3995,24881.8165941,"Región Metropolitana de Santiago","Cerrillos","Santiago",9,76602,8511.33333333333
"223","Supermercado San Antonio","Félix Margoz  N° 308 ",-33.49291,-70.70927124,303,20923.8592353,8,7,13102,13,23962251.3995,24881.8165941,"Región Metropolitana de Santiago","Cerrillos","Santiago",9,76602,8511.33333333333
"224","Supermercado Hiper Líder - Mall Plaza Oeste","Av. Américo Vespucio Nº 2701",-33.518625,-70.708181,303,20923.8592353,8,7,13102,13,23962251.3995,24881.8165941,"Región Metropolitana de Santiago","Cerrillos","Santiago",9,76602,8511.33333333333
"225","Supermercado Ekono - Puente Alto","Av. Salvador Allende N° 367",-33.5094234439,-70.7391580614,303,20923.8592353,8,7,13102,13,23962251.3995,24881.8165941,"Región Metropolitana de Santiago","Cerrillos","Santiago",9,76602,8511.33333333333
"226","Supermercado Ekono - Galileo","Galileo N° 1610",-33.498127,-70.728383,303,20923.8592353,8,7,13102,13,23962251.3995,24881.8165941,"Región Metropolitana de Santiago","Cerrillos","Santiago",9,76602,8511.33333333333
"227","Supermercado Ekono - José Joaquín Perez / Neptuno","Av. José Joaquín Perez N° 6142",-33.430482,-70.720717,304,16740.5089434,9,7,13103,13,16106927.6958,19971.3089847,"Región Metropolitana de Santiago","Cerro Navia","Santiago",6,126947,21157.8333333333
"228","Supermercados Monserrat - Cerro Navia","General Carrera N° 1245",-33.432493,-70.731404,304,16740.5089434,9,7,13103,13,16106927.6958,19971.3089847,"Región Metropolitana de Santiago","Cerro Navia","Santiago",6,126947,21157.8333333333
"229","Supermercado Santa Isabel - Cerro Navia","Av. José Joaquín Pérez Nº 7259",-33.4294198,-70.7360142,304,16740.5089434,9,7,13103,13,16106927.6958,19971.3089847,"Región Metropolitana de Santiago","Cerro Navia","Santiago",6,126947,21157.8333333333
"230","Supermercado Santa Isabel - José Joaquín Pérez / Milan","José Joaquín Pérez Nº 7259",-33.4294198,-70.7360142,304,16740.5089434,9,7,13103,13,16106927.6958,19971.3089847,"Región Metropolitana de Santiago","Cerro Navia","Santiago",6,126947,21157.8333333333
"231","Supermercado Ekono - Av. Mapocho / Río Bio Bio","Av. Mapocho N° 7366",-33.422917,-70.739351,304,16740.5089434,9,7,13103,13,16106927.6958,19971.3089847,"Región Metropolitana de Santiago","Cerro Navia","Santiago",6,126947,21157.8333333333
"232","Supermercado Ekono - José Joaquín Pérez","José Joaquín Pérez N° 6142",-33.4306036037,-70.7207345288,304,16740.5089434,9,7,13103,13,16106927.6958,19971.3089847,"Región Metropolitana de Santiago","Cerro Navia","Santiago",6,126947,21157.8333333333
"233","Supermercado Líder Express - Vitacura","Av. Vitacura N° 4100",-33.399624,-70.590669,334,25316.046022,11,7,13132,13,41234129.0553,30628.9324363,"Región Metropolitana de Santiago","Vitacura","Santiago",12,80889,6740.75
"234","Supermercado Ekono - Vitacura / Alianza","Av. Vitacura N° 5322",-33.396401,-70.581625,334,25316.046022,11,7,13132,13,41234129.0553,30628.9324363,"Región Metropolitana de Santiago","Vitacura","Santiago",12,80889,6740.75
"235","Supermercado Tottus - Vitacura","Av. Vitacura N° 9019",-33.383201,-70.549645,334,25316.046022,11,7,13132,13,41234129.0553,30628.9324363,"Región Metropolitana de Santiago","Vitacura","Santiago",12,80889,6740.75
"236","Supermercado Santa Isabel - Pueblo Del Inglés  ","Av. Vitacura Nº 6255",-33.3905,-70.57146,334,25316.046022,11,7,13132,13,41234129.0553,30628.9324363,"Región Metropolitana de Santiago","Vitacura","Santiago",12,80889,6740.75
"237","Supermercado Diez - Vitacura","Luis Carrera Nº 2231",-33.3900118333,-70.586929078,334,25316.046022,11,7,13132,13,41234129.0553,30628.9324363,"Región Metropolitana de Santiago","Vitacura","Santiago",12,80889,6740.75
"238","Supermercado Líder - Buenaventura","Buenaventura N° 1770",-33.386369,-70.56814,334,25316.046022,11,7,13132,13,41234129.0553,30628.9324363,"Región Metropolitana de Santiago","Vitacura","Santiago",12,80889,6740.75
"239","Supermercados Erbi - Llavería","José María Escrivá de Balaguer N° 9471",-33.3757646268,-70.5457842733,334,25316.046022,11,7,13132,13,41234129.0553,30628.9324363,"Región Metropolitana de Santiago","Vitacura","Santiago",12,80889,6740.75
"240","Supermercado Unimarc - Av. Vitacura / Vespucio","Av. Vitacura N° 4607",-33.3984542450349,-70.5864491929135,334,25316.046022,11,7,13132,13,41234129.0553,30628.9324363,"Región Metropolitana de Santiago","Vitacura","Santiago",12,80889,6740.75
"241","Supermercado Jumbo - Lo Castillo","Eduardo Marquina N° 3412",-33.400165,-70.591906,334,25316.046022,11,7,13132,13,41234129.0553,30628.9324363,"Región Metropolitana de Santiago","Vitacura","Santiago",12,80889,6740.75
"242","Supermercado Unimarc - Av. Vitacura / Las Tranqueras","Av. Vitacura N° 8400",-33.384948,-70.554367,334,25316.046022,11,7,13132,13,41234129.0553,30628.9324363,"Región Metropolitana de Santiago","Vitacura","Santiago",12,80889,6740.75
"243","Supermercado Unimarc - Av. Manquehue Norte / Cerro El Plomo","Av. Manquehue Norte N° 457",-33.3903352060048,-70.5727942670416,334,25316.046022,11,7,13132,13,41234129.0553,30628.9324363,"Región Metropolitana de Santiago","Vitacura","Santiago",12,80889,6740.75
"244","Supermercado Unimarc - Av. Santa María","Av. Santa María N° 6940",-33.37693,-70.568482,334,25316.046022,11,7,13132,13,41234129.0553,30628.9324363,"Región Metropolitana de Santiago","Vitacura","Santiago",12,80889,6740.75
"245","Montserrat - Conchalí","Av. Presidente Eduardo Frei Montalva N° 4475",-33.391021,-70.688745,305,13816.6343887,9,7,13104,13,15802665.9189,16624.3582676,"Región Metropolitana de Santiago","Conchalí","Santiago",18,121668,6759.33333333333
"246","Supermercados Erbi - Independencia 3","Av. Independencia N° 6117",-33.3672358333,-70.6889545833,305,13816.6343887,9,7,13104,13,15802665.9189,16624.3582676,"Región Metropolitana de Santiago","Conchalí","Santiago",18,121668,6759.33333333333
"247","Supermercado Santa Isabel - Independencia / Dorsal","Independencia Nº 3160",-33.3978227,-70.6696414,305,13816.6343887,9,7,13104,13,15802665.9189,16624.3582676,"Región Metropolitana de Santiago","Conchalí","Santiago",18,121668,6759.33333333333
"248","Santa Isabel - Independencia ","Av. Independencia Nº3160",-33.398132,-70.669289,305,13816.6343887,9,7,13104,13,15802665.9189,16624.3582676,"Región Metropolitana de Santiago","Conchalí","Santiago",18,121668,6759.33333333333
"249","Supermercado San Lorenzo","Av. Guanaco Nº 4480",-33.3791815351,-70.6578399737,305,13816.6343887,9,7,13104,13,15802665.9189,16624.3582676,"Región Metropolitana de Santiago","Conchalí","Santiago",18,121668,6759.33333333333
"250","Supermercado Alvi - Conchalí","Av. Independencia Nº 5154",-33.38189917,-70.68270958,305,13816.6343887,9,7,13104,13,15802665.9189,16624.3582676,"Región Metropolitana de Santiago","Conchalí","Santiago",18,121668,6759.33333333333
"251","Supermercado Tottus - Pedro Fontova","Pedro Fontova N° 5810",-33.371597,-70.671239,305,13816.6343887,9,7,13104,13,15802665.9189,16624.3582676,"Región Metropolitana de Santiago","Conchalí","Santiago",18,121668,6759.33333333333
"252","Supermercado Hiper Líder - Independencia","Av. Independencia Nº 4142",-33.389717,-70.676069,305,13816.6343887,9,7,13104,13,15802665.9189,16624.3582676,"Región Metropolitana de Santiago","Conchalí","Santiago",18,121668,6759.33333333333
"253","Ekono - Av. Independencia / Rio Calle Calle","Av. Independencia N° 4553",-33.386794,-70.678379,305,13816.6343887,9,7,13104,13,15802665.9189,16624.3582676,"Región Metropolitana de Santiago","Conchalí","Santiago",18,121668,6759.33333333333
"254","Supermercados Montserrat - Conchalí","Av. Presidente Eduardo Frei Montalva N° 4475 ",-33.391021,-70.688745,305,13816.6343887,9,7,13104,13,15802665.9189,16624.3582676,"Región Metropolitana de Santiago","Conchalí","Santiago",18,121668,6759.33333333333
"255","Supermercado Unimarc - Av. Guanaco","Av. Guanaco N° 3290",-33.395185,-70.657817,305,13816.6343887,9,7,13104,13,15802665.9189,16624.3582676,"Región Metropolitana de Santiago","Conchalí","Santiago",18,121668,6759.33333333333
"256","Supermercado Ekono - Av. Zapadores","Av. Zapadores N° 1200",-33.386825,-70.657207,305,13816.6343887,9,7,13104,13,15802665.9189,16624.3582676,"Región Metropolitana de Santiago","Conchalí","Santiago",18,121668,6759.33333333333
"257","Supermercado Líder - Independencia","Av. Independencia N° 4142",-33.3903680709,-70.675437219,305,13816.6343887,9,7,13104,13,15802665.9189,16624.3582676,"Región Metropolitana de Santiago","Conchalí","Santiago",18,121668,6759.33333333333
"258","Supermercado Ekono - El Cortijo","Av. El Cortijo N° 1981",-33.378497,-70.688052,305,13816.6343887,9,7,13104,13,15802665.9189,16624.3582676,"Región Metropolitana de Santiago","Conchalí","Santiago",18,121668,6759.33333333333
"259","Supermercado Santa Isabel - Cardenal José María Caro","Av. Cardenal José María Caro N° 1771",-33.3733452778,-70.6820844444,305,13816.6343887,9,7,13104,13,15802665.9189,16624.3582676,"Región Metropolitana de Santiago","Conchalí","Santiago",18,121668,6759.33333333333
"260","Supermercado Montserrat - Av. Independencia / Esmeralda","Av. Independencia N° 3601",-33.395496,-70.672036,305,13816.6343887,9,7,13104,13,15802665.9189,16624.3582676,"Región Metropolitana de Santiago","Conchalí","Santiago",18,121668,6759.33333333333
"261","Supermercado Ekono - Zapadores","Zapadores N° 1200",-33.3869422701,-70.6572581168,305,13816.6343887,9,7,13104,13,15802665.9189,16624.3582676,"Región Metropolitana de Santiago","Conchalí","Santiago",18,121668,6759.33333333333
"262","Supermercado Unimarc - Av. Zapadores","Av. Zapadores N° 1320",-33.386331,-70.663738,305,13816.6343887,9,7,13104,13,15802665.9189,16624.3582676,"Región Metropolitana de Santiago","Conchalí","Santiago",18,121668,6759.33333333333
"263","Hipermecados Margarita Roman Sanders","Alejandro Guzmán N° 091 ",-33.553945,-70.672886,306,15584.8638776,13,7,13105,13,20608987.1951,18894.4532659,"Región Metropolitana de Santiago","El Bosque","Santiago",7,156013,22287.5714285714
"264","Supermercado Ekono - Central","Central N° 711",-33.571496,-70.677159,306,15584.8638776,13,7,13105,13,20608987.1951,18894.4532659,"Región Metropolitana de Santiago","El Bosque","Santiago",7,156013,22287.5714285714
"265","Supermercado La Oferta","Av. Padre Hurtado Nº 11720",-33.5679385167,-70.6725600667,306,15584.8638776,13,7,13105,13,20608987.1951,18894.4532659,"Región Metropolitana de Santiago","El Bosque","Santiago",7,156013,22287.5714285714
"266","Supermercado Tottus - Open Plaza El Bosque","Av. José Miguel Carrera N° 10375",-33.554025,-70.674988,306,15584.8638776,13,7,13105,13,20608987.1951,18894.4532659,"Región Metropolitana de Santiago","El Bosque","Santiago",7,156013,22287.5714285714
"267","Supermercado Ekono - Observatorio","Observatorio N° 645",-33.560007,-70.672083,306,15584.8638776,13,7,13105,13,20608987.1951,18894.4532659,"Región Metropolitana de Santiago","El Bosque","Santiago",7,156013,22287.5714285714
"268","Supermercado Montserrat - Gran Avenida","Gran Avenida José Miguel Carrera N° 13125",-33.5744,-70.690814,306,15584.8638776,13,7,13105,13,20608987.1951,18894.4532659,"Región Metropolitana de Santiago","El Bosque","Santiago",7,156013,22287.5714285714
"269","Supermercado Santa Isabel - El Bosque","Gran Avenida José Miguel Carrera Nº 9863",-33.5503743,-70.6721025,306,15584.8638776,13,7,13105,13,20608987.1951,18894.4532659,"Región Metropolitana de Santiago","El Bosque","Santiago",7,156013,22287.5714285714
"270","Santa Isabel - Alameda","Av. Libertador Bernardo O`Higgins Nº 3390",-33.4517169,-70.6810379,18258,13054.5635243,8,7,13106,13,21220542.6436,22973.0408725,"Región Metropolitana de Santiago","Estación Central","Santiago",11,134672,12242.9090909091
"271","Líder Express Las Rejas","Av. Libertar B.O ´Higgins N° 5199",-33.456864,-70.705201,18258,13054.5635243,8,7,13106,13,21220542.6436,22973.0408725,"Región Metropolitana de Santiago","Estación Central","Santiago",11,134672,12242.9090909091
"272","Unimarc","Av. Las Rejas Sur N° 1279",-33.469132,-70.704688,18258,13054.5635243,8,7,13106,13,21220542.6436,22973.0408725,"Región Metropolitana de Santiago","Estación Central","Santiago",11,134672,12242.9090909091
"273","Hiper Lider Alameda","Av. Padre Alberto Hurtado Nº 060",-33.455451,-70.690013,18258,13054.5635243,8,7,13106,13,21220542.6436,22973.0408725,"Región Metropolitana de Santiago","Estación Central","Santiago",11,134672,12242.9090909091
"274","Supermercado Ekono - Las Rejas Sur","Av. Las Rejas Sur N° 854",-33.463876,-70.704987,18258,13054.5635243,8,7,13106,13,21220542.6436,22973.0408725,"Región Metropolitana de Santiago","Estación Central","Santiago",11,134672,12242.9090909091
"275","Supermercado Montserrat - Av. Gladys Marín","Av. Gladys Marín N° 6950",-33.467693,-70.730109,18258,13054.5635243,8,7,13106,13,21220542.6436,22973.0408725,"Región Metropolitana de Santiago","Estación Central","Santiago",11,134672,12242.9090909091
"276","Supermercado Ekono - Libertador Bernardo O´Higgins / Concón","Av. Libertador Bernardo O´Higgins N° 4407",-33.454937,-70.696023,18258,13054.5635243,8,7,13106,13,21220542.6436,22973.0408725,"Región Metropolitana de Santiago","Estación Central","Santiago",11,134672,12242.9090909091
"277","Santa Isabel - Alameda / San Francisco de Borja","Av. Libertador Bernardo O'Higgins Nº 3390",-33.4517169,-70.6810379,18258,13054.5635243,8,7,13106,13,21220542.6436,22973.0408725,"Región Metropolitana de Santiago","Estación Central","Santiago",11,134672,12242.9090909091
"278","Supermercado Ekono - Capitán Gálvez","Capitán Galvez N° 4285",-33.4683695097,-70.6928022591,18258,13054.5635243,8,7,13106,13,21220542.6436,22973.0408725,"Región Metropolitana de Santiago","Estación Central","Santiago",11,134672,12242.9090909091
"279","Supermercado Tottus - Mall Plaza Alameda","Av. Libertador Bernardo O'Higgins N° 3470",-33.452033,-70.682412,18258,13054.5635243,8,7,13106,13,21220542.6436,22973.0408725,"Región Metropolitana de Santiago","Estación Central","Santiago",11,134672,12242.9090909091
"280","Supermercado Hiper Líder - General Velásquez","Av. General Veláquez N° 60",-33.4528201456352,-70.6920969486236,18258,13054.5635243,8,7,13106,13,21220542.6436,22973.0408725,"Región Metropolitana de Santiago","Estación Central","Santiago",11,134672,12242.9090909091
"281","Supermercado Santa Isabel - Enrique Olivares","Av. La Florida Nº 9385",-33.540057,-70.57168,311,49696.4267928,12,7,13110,13,102524500.67,59570.5612212,"Región Metropolitana de Santiago","La Florida","Santiago",38,353923,9313.76315789474
"282","Supermercado Ekono - Av. Vicuña Mackenna Oriente / Trinidad","Av. Vicuña Mackenna Oriente N° 9840",-33.545718,-70.588084,311,49696.4267928,12,7,13110,13,102524500.67,59570.5612212,"Región Metropolitana de Santiago","La Florida","Santiago",38,353923,9313.76315789474
"283","Supermercado Carolina","Huacán N° 9611",-33.54247,-70.559711,311,49696.4267928,12,7,13110,13,102524500.67,59570.5612212,"Región Metropolitana de Santiago","La Florida","Santiago",38,353923,9313.76315789474
"284","Supermercados los Clarines","Doctor Sótero del Río  N° 1105 ",-33.53781769,-70.60825516,311,49696.4267928,12,7,13110,13,102524500.67,59570.5612212,"Región Metropolitana de Santiago","La Florida","Santiago",38,353923,9313.76315789474
"285","Supermercado Líder - Departamental","Av. Américo Vespucio N° 6325",-33.5118069259,-70.5920934815,311,49696.4267928,12,7,13110,13,102524500.67,59570.5612212,"Región Metropolitana de Santiago","La Florida","Santiago",38,353923,9313.76315789474
"286","Supermercado Unimarc - Vicente Valdés","Vicente Valdés N° 85",-33.5264369719999,-70.5934611759999,311,49696.4267928,12,7,13110,13,102524500.67,59570.5612212,"Región Metropolitana de Santiago","La Florida","Santiago",38,353923,9313.76315789474
"287","Supermercados Erbi - Rayén","Rayén N° 1637",-33.5277845772,-70.5786657194,311,49696.4267928,12,7,13110,13,102524500.67,59570.5612212,"Región Metropolitana de Santiago","La Florida","Santiago",38,353923,9313.76315789474
"288","Hipermercado Santa Amalia LTDA.","Santa Amalia  N° 1763 ",-33.54416228,-70.57104705,311,49696.4267928,12,7,13110,13,102524500.67,59570.5612212,"Región Metropolitana de Santiago","La Florida","Santiago",38,353923,9313.76315789474
"289","Supermercado Da' Carla","General Arriagada  N° 1091 ",-33.55849657,-70.59956123,311,49696.4267928,12,7,13110,13,102524500.67,59570.5612212,"Región Metropolitana de Santiago","La Florida","Santiago",38,353923,9313.76315789474
"290","Supermercado Líder - Froilán Roa","Froilán Roa Nº7107",-33.514474,-70.600078,311,49696.4267928,12,7,13110,13,102524500.67,59570.5612212,"Región Metropolitana de Santiago","La Florida","Santiago",38,353923,9313.76315789474
"291","Santa Isabel ","Av. La Florida Nº 10149",-33.549681,-70.566713,311,49696.4267928,12,7,13110,13,102524500.67,59570.5612212,"Región Metropolitana de Santiago","La Florida","Santiago",38,353923,9313.76315789474
"292","Supermercado Hiper Líder - La Florida","Av. Américo Vespucio Nº 6325",-33.511908,-70.590836,311,49696.4267928,12,7,13110,13,102524500.67,59570.5612212,"Región Metropolitana de Santiago","La Florida","Santiago",38,353923,9313.76315789474
"293","Supermercado Santa Isabel - Walker Martínez ","Av. Walker Martínez Nº 1786  ",-33.522381,-70.579008,311,49696.4267928,12,7,13110,13,102524500.67,59570.5612212,"Región Metropolitana de Santiago","La Florida","Santiago",38,353923,9313.76315789474
"294","Supermercado Lider","Av. Santa Amalia Nº 1763",-33.5436615,-70.5649623,311,49696.4267928,12,7,13110,13,102524500.67,59570.5612212,"Región Metropolitana de Santiago","La Florida","Santiago",38,353923,9313.76315789474
"295","Supermercado Tottus - La Florida","Av. Américo Vespucio N° 7310",-33.52151,-70.597113,311,49696.4267928,12,7,13110,13,102524500.67,59570.5612212,"Región Metropolitana de Santiago","La Florida","Santiago",38,353923,9313.76315789474
"296","Supermercado Lider","Av. Américo Vespucio  N° 6325 ",-33.51172277,-70.59145045,311,49696.4267928,12,7,13110,13,102524500.67,59570.5612212,"Región Metropolitana de Santiago","La Florida","Santiago",38,353923,9313.76315789474
"297","Hiper Vicuna Mackenna","Av. Vicuña Mackenna Poniente N° 7196",-33.520797328,-70.6011757751,311,49696.4267928,12,7,13110,13,102524500.67,59570.5612212,"Región Metropolitana de Santiago","La Florida","Santiago",38,353923,9313.76315789474
"298","Supermercado Santa Isabel","Av. Trinidad Nº 123",-33.5471167,-70.5900238,311,49696.4267928,12,7,13110,13,102524500.67,59570.5612212,"Región Metropolitana de Santiago","La Florida","Santiago",38,353923,9313.76315789474
"299","Supermercado Santa Isabel - La Florida / Enrique Olivares","Av. La Florida Nº 9385",-33.539471,-70.571969,311,49696.4267928,12,7,13110,13,102524500.67,59570.5612212,"Región Metropolitana de Santiago","La Florida","Santiago",38,353923,9313.76315789474
"300","Supermercado Tottus - La Florida","Av. Vicuña Mackenna N° 7310",-33.521664,-70.600277,311,49696.4267928,12,7,13110,13,102524500.67,59570.5612212,"Región Metropolitana de Santiago","La Florida","Santiago",38,353923,9313.76315789474
"301","Supermercado Unimarc - Av. Vicuña Mackenna / Mirador Azul","Av. Vicuña Mackenna N° 6331",-33.5134368143,-70.6061791007,311,49696.4267928,12,7,13110,13,102524500.67,59570.5612212,"Región Metropolitana de Santiago","La Florida","Santiago",38,353923,9313.76315789474
"302","Supermercado Ekono - Doctor Sótero del Río","Doctor Sotero del Río N° 831",-33.539232,-70.600657,311,49696.4267928,12,7,13110,13,102524500.67,59570.5612212,"Región Metropolitana de Santiago","La Florida","Santiago",38,353923,9313.76315789474
"303","Supermercado Líder - Rojas Magallanes ","Av. Mariano Sánchez Fontecilla N° 8968",-33.536403,-70.553978,311,49696.4267928,12,7,13110,13,102524500.67,59570.5612212,"Región Metropolitana de Santiago","La Florida","Santiago",38,353923,9313.76315789474
"304","Supermercado Ekono - Santa Cecilia","Santa Cecilia N° 11407",-33.561652,-70.57542,311,49696.4267928,12,7,13110,13,102524500.67,59570.5612212,"Región Metropolitana de Santiago","La Florida","Santiago",38,353923,9313.76315789474
"305","Supermercado Ekono - Colombia / Fukushima","Colombia N° 7111",-33.521534,-70.590397,311,49696.4267928,12,7,13110,13,102524500.67,59570.5612212,"Región Metropolitana de Santiago","La Florida","Santiago",38,353923,9313.76315789474
"306","Supermercado Montserrat - La Florida I","Av. Americo Vespucio N° 7500 ",-33.519767,-70.595806,311,49696.4267928,12,7,13110,13,102524500.67,59570.5612212,"Región Metropolitana de Santiago","La Florida","Santiago",38,353923,9313.76315789474
"307","Supermercado Ekono - Santa Raquel","Santa Raquel N° 10968",-33.562198837,-70.5999397902,311,49696.4267928,12,7,13110,13,102524500.67,59570.5612212,"Región Metropolitana de Santiago","La Florida","Santiago",38,353923,9313.76315789474
"308","Supermercados Montserrat - La Florida II","Av. Vicuña Mackenna N° 12321",-33.566021,-70.58454,311,49696.4267928,12,7,13110,13,102524500.67,59570.5612212,"Región Metropolitana de Santiago","La Florida","Santiago",38,353923,9313.76315789474
"309","Supermercado Unimarc - Av. Vicuña Mackenna / Sótero del Río","Av. Vicuña Mackenna N° 9090",-33.539431,-70.591303,311,49696.4267928,12,7,13110,13,102524500.67,59570.5612212,"Región Metropolitana de Santiago","La Florida","Santiago",38,353923,9313.76315789474
"310","Supermercado Jumbo - Florida Center ","Av. Vicuña Mackenna Oriente N° 6100",-33.51082,-70.608579,311,49696.4267928,12,7,13110,13,102524500.67,59570.5612212,"Región Metropolitana de Santiago","La Florida","Santiago",38,353923,9313.76315789474
"311","Supermercado Líder - Mall Plaza Vespucio","Av. Vicuña Mackenna Nº 7110",-33.5186272222,-70.5972633333,311,49696.4267928,12,7,13110,13,102524500.67,59570.5612212,"Región Metropolitana de Santiago","La Florida","Santiago",38,353923,9313.76315789474
"312","Santa Isabel - Ecuador","Ecuador Nº 5455",-33.532739,-70.583675,311,49696.4267928,12,7,13110,13,102524500.67,59570.5612212,"Región Metropolitana de Santiago","La Florida","Santiago",38,353923,9313.76315789474
"313","Supermercado Santa Isabel - El Alba","Av. La Florida N° 10149",-33.5497558333,-70.5669133333,311,49696.4267928,12,7,13110,13,102524500.67,59570.5612212,"Región Metropolitana de Santiago","La Florida","Santiago",38,353923,9313.76315789474
"314","Supermercado Santa Isabel - Vicuña Mackenna / La Florida ","Av. Vicuña Mackenna Nº 11145",-33.5618479167,-70.58555,311,49696.4267928,12,7,13110,13,102524500.67,59570.5612212,"Región Metropolitana de Santiago","La Florida","Santiago",38,353923,9313.76315789474
"315","Supermercado Santa Isabel - Walker Martínez / La Florida ","Walker Martinez Nº 1786",-33.5218459188,-70.5795650824,311,49696.4267928,12,7,13110,13,102524500.67,59570.5612212,"Región Metropolitana de Santiago","La Florida","Santiago",38,353923,9313.76315789474
"316","Supermercado Unimarc - Rojas Magallanes","Rojas Magallanes N° 3638",-33.5359270019668,-70.5547798666583,311,49696.4267928,12,7,13110,13,102524500.67,59570.5612212,"Región Metropolitana de Santiago","La Florida","Santiago",38,353923,9313.76315789474
"317","Supermercado Ekono - Colombia / Enrique Olivares","Colombia N° 9187",-33.538869,-70.583492,311,49696.4267928,12,7,13110,13,102524500.67,59570.5612212,"Región Metropolitana de Santiago","La Florida","Santiago",38,353923,9313.76315789474
"318","Supermercado Ekono - San José de la Estrella","San José de la Estrella N° 1007",-33.553833,-70.599356,311,49696.4267928,12,7,13110,13,102524500.67,59570.5612212,"Región Metropolitana de Santiago","La Florida","Santiago",38,353923,9313.76315789474
"319","Supermercado Ekono - Av. Lo Ovalle / Av. Punta Arenas","Av. Lo Ovalle N° 347",-33.533142,-70.610068,312,14001.4247777,10,7,13111,13,14519877.9967,16893.8361648,"Región Metropolitana de Santiago","La Granja","Santiago",8,111751,13968.875
"320","Supermercado Ekono - La Serena ","La Serena N° 7996",-33.531939,-70.622957,312,14001.4247777,10,7,13111,13,14519877.9967,16893.8361648,"Región Metropolitana de Santiago","La Granja","Santiago",8,111751,13968.875
"321","Super mercado ","Veinte Oriente Nº 6472",-33.518291,-70.622261,312,14001.4247777,10,7,13111,13,14519877.9967,16893.8361648,"Región Metropolitana de Santiago","La Granja","Santiago",8,111751,13968.875
"322","Supermercado Santa Isabel - Los Pensamientos","Los Pensamientos Nº 10260",-33.5509462,-70.6193188,312,14001.4247777,10,7,13111,13,14519877.9967,16893.8361648,"Región Metropolitana de Santiago","La Granja","Santiago",8,111751,13968.875
"323","Supermercado Santa Isabel - Joaquín Edwards Bello ","Joaquín Edwards Bello Nº 10670",-33.5580587,-70.6235347,312,14001.4247777,10,7,13111,13,14519877.9967,16893.8361648,"Región Metropolitana de Santiago","La Granja","Santiago",8,111751,13968.875
"324","Supermercado Ekono - Santa Rosa / Canto General","Av. Santa Rosa N° 10016",-33.551669,-70.632327,312,14001.4247777,10,7,13111,13,14519877.9967,16893.8361648,"Región Metropolitana de Santiago","La Granja","Santiago",8,111751,13968.875
"325","Supermercado Ekono - Av. Lo Ovalle","Av. Lo Ovalle N° 1395",-33.533171,-70.610035,312,14001.4247777,10,7,13111,13,14519877.9967,16893.8361648,"Región Metropolitana de Santiago","La Granja","Santiago",8,111751,13968.875
"326","Supermercado Santa Isabel - Santa Rosa / San Miguel","Av. Santa Rosa Nº 7668",-33.528022,-70.6355049,312,14001.4247777,10,7,13111,13,14519877.9967,16893.8361648,"Región Metropolitana de Santiago","La Granja","Santiago",8,111751,13968.875
"327","Supermercado Líder - La Pintana","Santa Rosa N° 13100",-33.58751112,-70.62817026,313,26302.7906973,12,7,13112,13,44063102.067,31608.3044188,"Región Metropolitana de Santiago","La Pintana","Santiago",4,170133,42533.25
"328","Supermercado Ekono - Lo Martínez","Lo Martínez N° 1397",-33.576462,-70.637279,313,26302.7906973,12,7,13112,13,44063102.067,31608.3044188,"Región Metropolitana de Santiago","La Pintana","Santiago",4,170133,42533.25
"329","Supermercado Santa Isabel ","Santa Rosa Nº 13015",-33.5862989474,-70.6295112281,313,26302.7906973,12,7,13112,13,44063102.067,31608.3044188,"Región Metropolitana de Santiago","La Pintana","Santiago",4,170133,42533.25
"330","Supermercado Líder - La Pintana","Av. Gabriela Nº 2541",-33.5853966667,-70.6263333333,313,26302.7906973,12,7,13112,13,44063102.067,31608.3044188,"Región Metropolitana de Santiago","La Pintana","Santiago",4,170133,42533.25
"331","Supermercados Erbi - Napoleón","Napoleón N° 2943",-33.4185631613,-70.5984194866,315,51230.563241,11,7,13114,13,141665818.383,61618.0901476,"Región Metropolitana de Santiago","Las Condes","Santiago",36,280284,7785.66666666667
"332","Supermercados Erbi - Santa Zita","Vía Láctea N° 3130",-33.425791,-70.5367311,315,51230.563241,11,7,13114,13,141665818.383,61618.0901476,"Región Metropolitana de Santiago","Las Condes","Santiago",36,280284,7785.66666666667
"333","Supermercados Unimarc - Av. Manquehue Sur / Latadia ","Av. Manquehue Sur N° 1700",-33.4268025,-70.5661536,315,51230.563241,11,7,13114,13,141665818.383,61618.0901476,"Región Metropolitana de Santiago","Las Condes","Santiago",36,280284,7785.66666666667
"334","Supermercado Líder Express - Estoril","Av. Las Condes N° 10295",-33.384108,-70.533958,315,51230.563241,11,7,13114,13,141665818.383,61618.0901476,"Región Metropolitana de Santiago","Las Condes","Santiago",36,280284,7785.66666666667
"335","Supermercados Erbi - Vía Láctea","Vía Láctea  N° 9130 ",-33.4256737,-70.53416282,315,51230.563241,11,7,13114,13,141665818.383,61618.0901476,"Región Metropolitana de Santiago","Las Condes","Santiago",36,280284,7785.66666666667
"336","Supermercados S Y P - Cristóbal Colón Av. Las Condes","Cristóbal Colón Nº 3707",-33.4253,-70.5871,315,51230.563241,11,7,13114,13,141665818.383,61618.0901476,"Región Metropolitana de Santiago","Las Condes","Santiago",36,280284,7785.66666666667
"337","Supermercado Santa Isabel - Manquehue Sur","Av. Manquehue Sur Nº 329",-33.411139,-70.566565,315,51230.563241,11,7,13114,13,141665818.383,61618.0901476,"Región Metropolitana de Santiago","Las Condes","Santiago",36,280284,7785.66666666667
"338","Supermercado Líder Express - Rotonda Atenas","Av. IV Centenario Nº 1016",-33.41867,-70.552177,315,51230.563241,11,7,13114,13,141665818.383,61618.0901476,"Región Metropolitana de Santiago","Las Condes","Santiago",36,280284,7785.66666666667
"339","Supermercado Santa Isabel - Camino el Alba","Camino El Alba Nº 8572",-33.407882,-70.545065,315,51230.563241,11,7,13114,13,141665818.383,61618.0901476,"Región Metropolitana de Santiago","Las Condes","Santiago",36,280284,7785.66666666667
"340","Supermercado Santa Isabel - Padre Hurtado","Av. Padre Hurtado Sur Nº 1621",-33.423858,-70.538179,315,51230.563241,11,7,13114,13,141665818.383,61618.0901476,"Región Metropolitana de Santiago","Las Condes","Santiago",36,280284,7785.66666666667
"341","Monserrat - Las condes","Av. las condes N° 9350",-33.390408,-70.541292,315,51230.563241,11,7,13114,13,141665818.383,61618.0901476,"Región Metropolitana de Santiago","Las Condes","Santiago",36,280284,7785.66666666667
"342","Supermercado Lider Express - Tomás Moro","Av. Tomás Moro N°1590",-33.424197,-70.553832,315,51230.563241,11,7,13114,13,141665818.383,61618.0901476,"Región Metropolitana de Santiago","Las Condes","Santiago",36,280284,7785.66666666667
"343","Jumbo","Camino El Alba N° 11969",-33.401154,-70.516052,315,51230.563241,11,7,13114,13,141665818.383,61618.0901476,"Región Metropolitana de Santiago","Las Condes","Santiago",36,280284,7785.66666666667
"344","Supermercado Tottus - Kennedy","Av. Presidente Kennedy N° 5601",-33.39965,-70.574742,315,51230.563241,11,7,13114,13,141665818.383,61618.0901476,"Región Metropolitana de Santiago","Las Condes","Santiago",36,280284,7785.66666666667
"345","Ekono","Av. Manquehue Sur N° 841",-33.4142598248012,-70.5657934547874,315,51230.563241,11,7,13114,13,141665818.383,61618.0901476,"Región Metropolitana de Santiago","Las Condes","Santiago",36,280284,7785.66666666667
"346","Supermercado Jumbo - Portal La Reina","Av. Francisco Bilbao N° 8750",-33.428775,-70.540588,315,51230.563241,11,7,13114,13,141665818.383,61618.0901476,"Región Metropolitana de Santiago","Las Condes","Santiago",36,280284,7785.66666666667
"347","Jumbo Bilbao","Av. Francisco Bilbao N° 4144",-33.431267,-70.578742,315,51230.563241,11,7,13114,13,141665818.383,61618.0901476,"Región Metropolitana de Santiago","Las Condes","Santiago",36,280284,7785.66666666667
"348","Supermercado Líder Express - Vespucio / Latadia","Av. Américo Vespucio Sur N° 1790",-33.4284654,-70.5745938,315,51230.563241,11,7,13114,13,141665818.383,61618.0901476,"Región Metropolitana de Santiago","Las Condes","Santiago",36,280284,7785.66666666667
"349","Supermercado Rubio","Av. Cristobal Colon Nº 4207",-33.4242561111,-70.5814572222,315,51230.563241,11,7,13114,13,141665818.383,61618.0901476,"Región Metropolitana de Santiago","Las Condes","Santiago",36,280284,7785.66666666667
"350","Supermercado Unimarc - Los Dominicos ","Los Dominicos N° 8630",-33.409898,-70.544382,315,51230.563241,11,7,13114,13,141665818.383,61618.0901476,"Región Metropolitana de Santiago","Las Condes","Santiago",36,280284,7785.66666666667
"351","Supermercado Ekono - Av. Manquehue Sur","Av. Manquehue Sur N° 841",-33.414213,-70.565684,315,51230.563241,11,7,13114,13,141665818.383,61618.0901476,"Región Metropolitana de Santiago","Las Condes","Santiago",36,280284,7785.66666666667
"352","Supermercado Santa Isabel - Cantagallo","Av. Las Condes N° 12207",-33.373775,-70.5193883333,315,51230.563241,11,7,13114,13,141665818.383,61618.0901476,"Región Metropolitana de Santiago","Las Condes","Santiago",36,280284,7785.66666666667
"353","Supermercado Unimarc - Av. Manquehue Norte ","Av. Manquehue Norte N° 1700",-33.399624,-70.570675,315,51230.563241,11,7,13114,13,141665818.383,61618.0901476,"Región Metropolitana de Santiago","Las Condes","Santiago",36,280284,7785.66666666667
"354","Supermercado Santa Isabel - Apoquindo / Camino el Alba","Av. Apoquindo Nº 8450",-33.4079085,-70.545336,315,51230.563241,11,7,13114,13,141665818.383,61618.0901476,"Región Metropolitana de Santiago","Las Condes","Santiago",36,280284,7785.66666666667
"355","Supermercado Jumbo - Mall Alto Las Condes","Av. Presidente Kennedy N° 9001",-33.388825,-70.545271,315,51230.563241,11,7,13114,13,141665818.383,61618.0901476,"Región Metropolitana de Santiago","Las Condes","Santiago",36,280284,7785.66666666667
"356","Supermercado Líder Express - Apoquindo / Manquehue","Av. Apoquindo Nº 6060",-33.408827,-70.56771,315,51230.563241,11,7,13114,13,141665818.383,61618.0901476,"Región Metropolitana de Santiago","Las Condes","Santiago",36,280284,7785.66666666667
"357","Supermercado Líder - Ñuñoa","Av. Américo Vespucio Sur N° 881 ",-33.42165504,-70.58098846,315,51230.563241,11,7,13114,13,141665818.383,61618.0901476,"Región Metropolitana de Santiago","Las Condes","Santiago",36,280284,7785.66666666667
"358","Supermercado Jumbo - Los Dominicos","Camino El Alba N° 11969",-33.400945,-70.5143,315,51230.563241,11,7,13114,13,141665818.383,61618.0901476,"Región Metropolitana de Santiago","Las Condes","Santiago",36,280284,7785.66666666667
"359","Supermercado Montserrat - Av. Las Condes","Av. Las Condes N° 9350",-33.390297579,-70.5413329609,315,51230.563241,11,7,13114,13,141665818.383,61618.0901476,"Región Metropolitana de Santiago","Las Condes","Santiago",36,280284,7785.66666666667
"360","Santa Isabel - Apoquindo ","Av. Apoquindo Nº 7200",-33.407958,-70.554352,315,51230.563241,11,7,13114,13,141665818.383,61618.0901476,"Región Metropolitana de Santiago","Las Condes","Santiago",36,280284,7785.66666666667
"361","Supermercado Ekono - Subcentro Escuela Militar","Av. Apoquindo N° 4400",-33.4135159942,-70.5829064079,315,51230.563241,11,7,13114,13,141665818.383,61618.0901476,"Región Metropolitana de Santiago","Las Condes","Santiago",36,280284,7785.66666666667
"362","Supermercado Unimarc - Av. Apoquindo","Av. Apoquindo N° 4335",-33.414666,-70.58607,315,51230.563241,11,7,13114,13,141665818.383,61618.0901476,"Región Metropolitana de Santiago","Las Condes","Santiago",36,280284,7785.66666666667
"363","Supermercado Líder Express - Cristóbal Colón / Tomás Moro","Av. Cristobal Colón Nº 7475",-33.4185067275,-70.5533091971,315,51230.563241,11,7,13114,13,141665818.383,61618.0901476,"Región Metropolitana de Santiago","Las Condes","Santiago",36,280284,7785.66666666667
"364","Unimarc","Manquehue Norte Nº  458",-33.404644,-70.569595,315,51230.563241,11,7,13114,13,141665818.383,61618.0901476,"Región Metropolitana de Santiago","Las Condes","Santiago",36,280284,7785.66666666667
"365","Supermercado Líder Express - San Carlos de Apoquindo","Av. La Plaza N° 590",-33.390112,-70.498987,315,51230.563241,11,7,13114,13,141665818.383,61618.0901476,"Región Metropolitana de Santiago","Las Condes","Santiago",36,280284,7785.66666666667
"366","Supermercado Líder - Camino El Alba ","Camino El Alba Nº 11865",-33.401285,-70.517466,315,51230.563241,11,7,13114,13,141665818.383,61618.0901476,"Región Metropolitana de Santiago","Las Condes","Santiago",36,280284,7785.66666666667
"367","Líder Express La Dehesa","Av. El Rodeo Nº 12850",-33.35305,-70.520623,316,149539.074262,11,7,13115,13,1469676729.09,180515.436695,"Región Metropolitana de Santiago","Lo Barnechea","Santiago",8,99663,12457.875
"368","Supermercado Unimarc - Av. José Alcalde Délano","Av. Jose Alcalde Delano N° 10497",-33.361293814,-70.5441601049999,316,149539.074262,11,7,13115,13,1469676729.09,180515.436695,"Región Metropolitana de Santiago","Lo Barnechea","Santiago",8,99663,12457.875
"369","Supermercado Ekono - Av. Lo Barnechea","Av. Lo Barnechea N° 1000",-33.3599328895,-70.505944354,316,149539.074262,11,7,13115,13,1469676729.09,180515.436695,"Región Metropolitana de Santiago","Lo Barnechea","Santiago",8,99663,12457.875
"370","Supermercado Jumbo - Los Trapenses","Camino Los Trapenses N° 3515",-33.344268,-70.544436,316,149539.074262,11,7,13115,13,1469676729.09,180515.436695,"Región Metropolitana de Santiago","Lo Barnechea","Santiago",8,99663,12457.875
"371","Supermercado Unimarc - Av. Las Condes / San Enrique","Av. Las Condes N° 14792",-33.363812,-70.49426,316,149539.074262,11,7,13115,13,1469676729.09,180515.436695,"Región Metropolitana de Santiago","Lo Barnechea","Santiago",8,99663,12457.875
"372","Supermercado Hiper Líder - Las Condes","Av. Las Condes Nº 12916",-33.36956875,-70.5120675,316,149539.074262,11,7,13115,13,1469676729.09,180515.436695,"Región Metropolitana de Santiago","Lo Barnechea","Santiago",8,99663,12457.875
"373","Supermercado Jumbo - Mall Portal La Dehesa","Av. La Dehesa N° 1445",-33.358401,-70.517151,316,149539.074262,11,7,13115,13,1469676729.09,180515.436695,"Región Metropolitana de Santiago","Lo Barnechea","Santiago",8,99663,12457.875
"374","Supermercado Líder Express - El Rodeo","Av. El Rodeo N° 12850",-33.35305,-70.520623,316,149539.074262,11,7,13115,13,1469676729.09,180515.436695,"Región Metropolitana de Santiago","Lo Barnechea","Santiago",8,99663,12457.875
"375","Supermercado Santa Isabel - José Joaquín Prieto","Av. José Joaquín Prieto N° 5531",-33.5323749724,-70.6828555221,317,11405.9760388,13,7,13116,13,11804789.5926,13685.6180767,"Región Metropolitana de Santiago","Lo Espejo","Santiago",2,94273,47136.5
"376","Supermercado Ekono - Lo Espejo","Gabriela Mistral N° 9099",-33.5262527805,-70.699767638,317,11405.9760388,13,7,13116,13,11804789.5926,13685.6180767,"Región Metropolitana de Santiago","Lo Espejo","Santiago",2,94273,47136.5
"377","Supermercados La Africana - San Pablo","Av. San Pablo N° 7171 ",-33.4444364,-70.73596356,318,10795.4333158,9,7,13117,13,9412959.32787,12827.1594392,"Región Metropolitana de Santiago","Lo Prado","Santiago",6,92555,15425.8333333333
"378","Supermercado Erbi - San Pablo 2","San Pablo N° 5898",-33.443018362,-70.7156770784,318,10795.4333158,9,7,13117,13,9412959.32787,12827.1594392,"Región Metropolitana de Santiago","Lo Prado","Santiago",6,92555,15425.8333333333
"379","Supermercado Lo Prado","Av. San Pablo  N° 6103 ",-33.44386451,-70.72144097,318,10795.4333158,9,7,13117,13,9412959.32787,12827.1594392,"Región Metropolitana de Santiago","Lo Prado","Santiago",6,92555,15425.8333333333
"380","Supermercado Hiper Líder - Neptuno","Av. Neptuno Nº 72",-33.4542327623,-70.7219677326,318,10795.4333158,9,7,13117,13,9412959.32787,12827.1594392,"Región Metropolitana de Santiago","Lo Prado","Santiago",6,92555,15425.8333333333
"381","Hiper Líder - Neptuno / San Pablo","Neptuno Nº 720",-33.445651,-70.723383,318,10795.4333158,9,7,13117,13,9412959.32787,12827.1594392,"Región Metropolitana de Santiago","Lo Prado","Santiago",6,92555,15425.8333333333
"382","Supermercado Líder Express - Estación Central","Av. Libertador Bernando O'Higgins Nº 5199",-33.457235,-70.706398,318,10795.4333158,9,7,13117,13,9412959.32787,12827.1594392,"Región Metropolitana de Santiago","Lo Prado","Santiago",6,92555,15425.8333333333
"383","Hiper Líder - Américo Vespucio","Av. Américo Vespucio N° 3100",-33.4850139281,-70.5801246746,319,15200.7503739,10,7,13118,13,18447877.3332,18197.1776313,"Región Metropolitana de Santiago","Macul","Santiago",13,112654,8665.69230769231
"384","Supermercado Iruña Ltda.","Av. Alcalde Jorge Monckeberg  N° 2320 ",-33.4766705,-70.58767967,319,15200.7503739,10,7,13118,13,18447877.3332,18197.1776313,"Región Metropolitana de Santiago","Macul","Santiago",13,112654,8665.69230769231
"385","Supermercado San José","Av. Macul Nº 5317",-33.50145125,-70.5948465278,319,15200.7503739,10,7,13118,13,18447877.3332,18197.1776313,"Región Metropolitana de Santiago","Macul","Santiago",13,112654,8665.69230769231
"386","Supermercado Ekono - Froilán Roa","Froilán Roa N° 5308",-33.50723,-70.601646,319,15200.7503739,10,7,13118,13,18447877.3332,18197.1776313,"Región Metropolitana de Santiago","Macul","Santiago",13,112654,8665.69230769231
"387","Supermercado Líder - Macul ","Av. Macul Nº 2127",-33.474156,-70.598782,319,15200.7503739,10,7,13118,13,18447877.3332,18197.1776313,"Región Metropolitana de Santiago","Macul","Santiago",13,112654,8665.69230769231
"388","Supermercado Mayorista 10 - Macul","Marathon N° 3123",-33.4863289663,-70.6119741478,319,15200.7503739,10,7,13118,13,18447877.3332,18197.1776313,"Región Metropolitana de Santiago","Macul","Santiago",13,112654,8665.69230769231
"389","Supermercados Montserrat - Macul","Av. José Pedro Alessandri N° 3578",-33.487002,-70.599251,319,15200.7503739,10,7,13118,13,18447877.3332,18197.1776313,"Región Metropolitana de Santiago","Macul","Santiago",13,112654,8665.69230769231
"390","Supermercados Erbi - Macul","Mayor Abe N° 3145",-33.4809704157,-70.599576209,319,15200.7503739,10,7,13118,13,18447877.3332,18197.1776313,"Región Metropolitana de Santiago","Macul","Santiago",13,112654,8665.69230769231
"391","Supermercado Hiper Líder - Macul","Av. José Pedro Alessandri N° 2127",-33.491949,-70.60011,319,15200.7503739,10,7,13118,13,18447877.3332,18197.1776313,"Región Metropolitana de Santiago","Macul","Santiago",13,112654,8665.69230769231
"392","Supermercado Monserrat - Macul","Av. Macul N° 3578",-33.487036,-70.599426,319,15200.7503739,10,7,13118,13,18447877.3332,18197.1776313,"Región Metropolitana de Santiago","Macul","Santiago",13,112654,8665.69230769231
"393","Supermercado Ekono - Ramón Cruz","Ramon Cruz N° 3219",-33.48476,-70.5851861111,319,15200.7503739,10,7,13118,13,18447877.3332,18197.1776313,"Región Metropolitana de Santiago","Macul","Santiago",13,112654,8665.69230769231
"394","Supermercado Ekono - Los Olmos","Los Olmos N° 4117",-33.479878,-70.588876,319,15200.7503739,10,7,13118,13,18447877.3332,18197.1776313,"Región Metropolitana de Santiago","Macul","Santiago",13,112654,8665.69230769231
"395","Supermercado Unimarc - Ignacio Carrera Pinto","Ignacio Carrera Pinto N° 3857",-33.474349,-70.587277,319,15200.7503739,10,7,13118,13,18447877.3332,18197.1776313,"Región Metropolitana de Santiago","Macul","Santiago",13,112654,8665.69230769231
"396","Supermercado Ekono - Simón Bolivar","Simón Bolivar N° 3534",-33.479393,-70.731812,320,61424.9825258,8,7,13119,13,199087566.723,73734.9134275,"Región Metropolitana de Santiago","Maipú","Santiago",66,501581,7599.71212121212
"397","Supermercado Líder - Pajaritos / Monte Tabor","Av. Pajaritos Nº 4500",-33.481596,-70.745337,320,61424.9825258,8,7,13119,13,199087566.723,73734.9134275,"Región Metropolitana de Santiago","Maipú","Santiago",66,501581,7599.71212121212
"398","Ekono - Blanco Encalada / Pasaje Vesubio","Blanco Encalada N° 893",-33.499924,-70.767514,320,61424.9825258,8,7,13119,13,199087566.723,73734.9134275,"Región Metropolitana de Santiago","Maipú","Santiago",66,501581,7599.71212121212
"399","Supermercado Ribeiro","2 Norte Nº  1373",-33.5010351786,-70.7406672619,320,61424.9825258,8,7,13119,13,199087566.723,73734.9134275,"Región Metropolitana de Santiago","Maipú","Santiago",66,501581,7599.71212121212
"400","Supermercado Curico","Libertad  N° 630 ",-33.50563392,-70.76446789,320,61424.9825258,8,7,13119,13,199087566.723,73734.9134275,"Región Metropolitana de Santiago","Maipú","Santiago",66,501581,7599.71212121212
"401","Supermercado Santa Isabel - Tres Poniente","Tres Poniente Nº 2600",-33.501355,-70.7784313,320,61424.9825258,8,7,13119,13,199087566.723,73734.9134275,"Región Metropolitana de Santiago","Maipú","Santiago",66,501581,7599.71212121212
"402","Supermercado Ekono - Portales","Av. Portales N° 1995",-33.518362,-70.786777,320,61424.9825258,8,7,13119,13,199087566.723,73734.9134275,"Región Metropolitana de Santiago","Maipú","Santiago",66,501581,7599.71212121212
"403","Supermercado Unimarc - Eladio Rojas","Eladio Rojas N° 0604",-33.532433,-70.779174,320,61424.9825258,8,7,13119,13,199087566.723,73734.9134275,"Región Metropolitana de Santiago","Maipú","Santiago",66,501581,7599.71212121212
"404","Supermercado Ekono - Camino a Rinconada","Camino a Rinconada N° 2301",-33.505795,-70.787005,320,61424.9825258,8,7,13119,13,199087566.723,73734.9134275,"Región Metropolitana de Santiago","Maipú","Santiago",66,501581,7599.71212121212
"405","Unimarc - Camino Melipilla","Camino a Melipilla N° 17000",-33.543536,-70.78014,320,61424.9825258,8,7,13119,13,199087566.723,73734.9134275,"Región Metropolitana de Santiago","Maipú","Santiago",66,501581,7599.71212121212
"406","Supermercado Ekono - Olimpo","Olimpo N° 1990",-33.512099,-70.775513,320,61424.9825258,8,7,13119,13,199087566.723,73734.9134275,"Región Metropolitana de Santiago","Maipú","Santiago",66,501581,7599.71212121212
"407","Líder express Isabel Riquelme","Isabel Riquelme Sur N° 1436",-33.48533,-70.739126,320,61424.9825258,8,7,13119,13,199087566.723,73734.9134275,"Región Metropolitana de Santiago","Maipú","Santiago",66,501581,7599.71212121212
"408","Supermercado Mayorista Alvi - Pajaritos / La Colonia","Av. Los Pajaritos Nº 1639",-33.512549,-70.757258,320,61424.9825258,8,7,13119,13,199087566.723,73734.9134275,"Región Metropolitana de Santiago","Maipú","Santiago",66,501581,7599.71212121212
"409","Supermercado Ekono - Segunda Transversal","Segunda Transversal N° 956",-33.51595,-70.747502,320,61424.9825258,8,7,13119,13,199087566.723,73734.9134275,"Región Metropolitana de Santiago","Maipú","Santiago",66,501581,7599.71212121212
"410","Supermercado Ekono - Maipú","Av. 4 Poniente Nº 350",-33.5405585714,-70.7844102381,320,61424.9825258,8,7,13119,13,199087566.723,73734.9134275,"Región Metropolitana de Santiago","Maipú","Santiago",66,501581,7599.71212121212
"411","Supermercado Santa Isabel - Ciudad Satélite","Av. Alcalde José Luís Infante Larraín Nº 1320",-33.560449,-70.780018,320,61424.9825258,8,7,13119,13,199087566.723,73734.9134275,"Región Metropolitana de Santiago","Maipú","Santiago",66,501581,7599.71212121212
"412","Santa Isabel - Alcalde Luis Infante","Alcalde Luis Infante Nº 1320",-33.560446,-70.780023,320,61424.9825258,8,7,13119,13,199087566.723,73734.9134275,"Región Metropolitana de Santiago","Maipú","Santiago",66,501581,7599.71212121212
"413","Supermercado Líder Express - Plaza de Maipú","Av. Los Pajaritos N° 1790",-33.510768,-70.757384,320,61424.9825258,8,7,13119,13,199087566.723,73734.9134275,"Región Metropolitana de Santiago","Maipú","Santiago",66,501581,7599.71212121212
"414","Supermercado Líder - Espacio Urbano Maipú","Av. Pajaritos N° 1790",-33.51122,-70.757398,320,61424.9825258,8,7,13119,13,199087566.723,73734.9134275,"Región Metropolitana de Santiago","Maipú","Santiago",66,501581,7599.71212121212
"415","Supermercado Santa Isabel - Plaza Maipú","Av. Los Pajaritos Nº 1948",-33.509597,-70.757403,320,61424.9825258,8,7,13119,13,199087566.723,73734.9134275,"Región Metropolitana de Santiago","Maipú","Santiago",66,501581,7599.71212121212
"416","Supermercado Líder Express - Vespucio / Santa Elena","Av. Américo Vespucio Nº 1076",-33.477944,-70.757041,320,61424.9825258,8,7,13119,13,199087566.723,73734.9134275,"Región Metropolitana de Santiago","Maipú","Santiago",66,501581,7599.71212121212
"417","Supermercado La Africana","Alfredo Silva Carvallo Nº 730",-33.5282866297,-70.7663261217,320,61424.9825258,8,7,13119,13,199087566.723,73734.9134275,"Región Metropolitana de Santiago","Maipú","Santiago",66,501581,7599.71212121212
"418","Supermercado Ekono - Portales","Portales N° 1995",-33.518541,-70.787111,320,61424.9825258,8,7,13119,13,199087566.723,73734.9134275,"Región Metropolitana de Santiago","Maipú","Santiago",66,501581,7599.71212121212
"419","Supermercado Ekono - Presidente Gabriel González Videla","Presidente Gabriel Gonzalez Videla N° 2364",-33.536127,-70.786321,320,61424.9825258,8,7,13119,13,199087566.723,73734.9134275,"Región Metropolitana de Santiago","Maipú","Santiago",66,501581,7599.71212121212
"420","Supermercado Santa Isabel - 5 de Abril ","Av. 5 de Abril Nº 216",-33.510683,-70.760047,320,61424.9825258,8,7,13119,13,199087566.723,73734.9134275,"Región Metropolitana de Santiago","Maipú","Santiago",66,501581,7599.71212121212
"421","Supermercado Mayorista 10 - Ciudad Satélite","Camino a Melipilla N° 18400",-33.551654,-70.791916,320,61424.9825258,8,7,13119,13,199087566.723,73734.9134275,"Región Metropolitana de Santiago","Maipú","Santiago",66,501581,7599.71212121212
"422","Supermercado Unimarc","Camino a Melipilla Nº 17000",-33.54425,-70.781166,320,61424.9825258,8,7,13119,13,199087566.723,73734.9134275,"Región Metropolitana de Santiago","Maipú","Santiago",66,501581,7599.71212121212
"423","Supermercado Santa Isabel - 3 Poniente  ","Av. 3 Poniente Nº 2600",-33.505301,-70.745746,320,61424.9825258,8,7,13119,13,199087566.723,73734.9134275,"Región Metropolitana de Santiago","Maipú","Santiago",66,501581,7599.71212121212
"424","Santa Isabel - La Farfana","Av. El Rosal Nº 3999",-33.491064,-70.777338,320,61424.9825258,8,7,13119,13,199087566.723,73734.9134275,"Región Metropolitana de Santiago","Maipú","Santiago",66,501581,7599.71212121212
"425","Supermercado Unimarc - Rinconada","Av. Rinconada N° 1900",-33.5074365233921,-70.7832280634756,320,61424.9825258,8,7,13119,13,199087566.723,73734.9134275,"Región Metropolitana de Santiago","Maipú","Santiago",66,501581,7599.71212121212
"426","Supermercado ekono","Bagdad Nº 855",-33.544846,-70.769226,320,61424.9825258,8,7,13119,13,199087566.723,73734.9134275,"Región Metropolitana de Santiago","Maipú","Santiago",66,501581,7599.71212121212
"427","Supermercado Líder","Tres Poniente N° 900",-33.528862,-70.77726,320,61424.9825258,8,7,13119,13,199087566.723,73734.9134275,"Región Metropolitana de Santiago","Maipú","Santiago",66,501581,7599.71212121212
"428","Supermercado Jumbo - Pajaritos","Av. Pajaritos N° 3302",-33.49637,-70.757545,320,61424.9825258,8,7,13119,13,199087566.723,73734.9134275,"Región Metropolitana de Santiago","Maipú","Santiago",66,501581,7599.71212121212
"429","Supermercado Ekono - El Olimpo","El Olimpo N° 1990",-33.512038,-70.775498,320,61424.9825258,8,7,13119,13,199087566.723,73734.9134275,"Región Metropolitana de Santiago","Maipú","Santiago",66,501581,7599.71212121212
"430","Supermercado Santa Isabel","El Rosal N° 3999",-33.491852,-70.777687,320,61424.9825258,8,7,13119,13,199087566.723,73734.9134275,"Región Metropolitana de Santiago","Maipú","Santiago",66,501581,7599.71212121212
"431","Supermercado Hiper Líder - Tres Poniente","Av. Tres Poniente Nº 0900",-33.528107,-70.777515,320,61424.9825258,8,7,13119,13,199087566.723,73734.9134275,"Región Metropolitana de Santiago","Maipú","Santiago",66,501581,7599.71212121212
"432","Supermercado Santa Isabel","Av. Central Poniente N° 1040",-33.5606516667,-70.7871383333,320,61424.9825258,8,7,13119,13,199087566.723,73734.9134275,"Región Metropolitana de Santiago","Maipú","Santiago",66,501581,7599.71212121212
"433","Hiper Lider Maipú","Av. Los Pajaritos Nº 4500",-33.481596,-70.745337,320,61424.9825258,8,7,13119,13,199087566.723,73734.9134275,"Región Metropolitana de Santiago","Maipú","Santiago",66,501581,7599.71212121212
"434","Supermercados Erbi - Maipú 3","Av. Sur N° 1147",-33.5212786745,-70.7727319343,320,61424.9825258,8,7,13119,13,199087566.723,73734.9134275,"Región Metropolitana de Santiago","Maipú","Santiago",66,501581,7599.71212121212
"435","Supermercado Santa Isabel - Maipú","Av. Américo Vespucio N° 51",-33.4862842747,-70.7508083428,320,61424.9825258,8,7,13119,13,199087566.723,73734.9134275,"Región Metropolitana de Santiago","Maipú","Santiago",66,501581,7599.71212121212
"436","Supermercado Unimarc - Camino a Melipilla","Camino a Melipilla N° 16860",-33.538810971,-70.7733293153,320,61424.9825258,8,7,13119,13,199087566.723,73734.9134275,"Región Metropolitana de Santiago","Maipú","Santiago",66,501581,7599.71212121212
"437","Supermercado Santa Isabel - Parque Central Poniente ","Av. Parque Central Poniente  Nº 1040",-33.561711,-70.785799,320,61424.9825258,8,7,13119,13,199087566.723,73734.9134275,"Región Metropolitana de Santiago","Maipú","Santiago",66,501581,7599.71212121212
"438","Supermercado Ekono - Presidente Gabriel González Videla","Presidente Gabriel González Videla N° 2372",-33.536071,-70.786452,320,61424.9825258,8,7,13119,13,199087566.723,73734.9134275,"Región Metropolitana de Santiago","Maipú","Santiago",66,501581,7599.71212121212
"439","Supermercado Unimarc - Av. Silva Carvallo","Av. Silva Carvallo N° 1414",-33.531653,-70.774976,320,61424.9825258,8,7,13119,13,199087566.723,73734.9134275,"Región Metropolitana de Santiago","Maipú","Santiago",66,501581,7599.71212121212
"440","Supermercado Ekono - El Descanso","El Descanso N° 798",-33.4701279111,-70.7505897781,320,61424.9825258,8,7,13119,13,199087566.723,73734.9134275,"Región Metropolitana de Santiago","Maipú","Santiago",66,501581,7599.71212121212
"441","Supermercado Unimarc - Av. El Rosal","Av. El Rosal N° 6361",-33.4790914719999,-70.755865037,320,61424.9825258,8,7,13119,13,199087566.723,73734.9134275,"Región Metropolitana de Santiago","Maipú","Santiago",66,501581,7599.71212121212
"442","Supermercado Hiper Líder - Américo Vespucio / Fundo San José","Av. Américo Vespucio Nº 2701",-33.4866502156,-70.7498542874,320,61424.9825258,8,7,13119,13,199087566.723,73734.9134275,"Región Metropolitana de Santiago","Maipú","Santiago",66,501581,7599.71212121212
"443","Supermercado Jumbo - Mall Arauco Maipú","Av. Américo Vespucio N° 1001",-33.482156,-70.753558,320,61424.9825258,8,7,13119,13,199087566.723,73734.9134275,"Región Metropolitana de Santiago","Maipú","Santiago",66,501581,7599.71212121212
"444","Supermercado Ekono - Bagdad","Bagdad N° 855",-33.544681,-70.769428,320,61424.9825258,8,7,13119,13,199087566.723,73734.9134275,"Región Metropolitana de Santiago","Maipú","Santiago",66,501581,7599.71212121212
"445","Supermercado Ekono - Las Torres","Las Torres N° 1099",-33.479101,-70.731531,320,61424.9825258,8,7,13119,13,199087566.723,73734.9134275,"Región Metropolitana de Santiago","Maipú","Santiago",66,501581,7599.71212121212
"446","Supermercado Santa Isabel - Pajaritos / ","Av. Pajaritos Nº 4049",-33.485493,-70.747359,320,61424.9825258,8,7,13119,13,199087566.723,73734.9134275,"Región Metropolitana de Santiago","Maipú","Santiago",66,501581,7599.71212121212
"447","Supermercado Mayorista 10 Maipu","Av. 5 de abril N° 338",-33.510709,-70.76107,320,61424.9825258,8,7,13119,13,199087566.723,73734.9134275,"Región Metropolitana de Santiago","Maipú","Santiago",66,501581,7599.71212121212
"448","Supermercado Hiper Líder - El Descanso","Av. Américo Vespucio Norte N° 1955",-33.4716594444,-70.7589572222,320,61424.9825258,8,7,13119,13,199087566.723,73734.9134275,"Región Metropolitana de Santiago","Maipú","Santiago",66,501581,7599.71212121212
"449","Supermercado Santa Isabel - José Juaquín Prieto ","Av. Las Torres Nº 450",-33.472696,-70.730976,320,61424.9825258,8,7,13119,13,199087566.723,73734.9134275,"Región Metropolitana de Santiago","Maipú","Santiago",66,501581,7599.71212121212
"450","Ekono - Cuatro Poniente","Cuatro Poniente N° 350",-33.544721,-70.77577,320,61424.9825258,8,7,13119,13,199087566.723,73734.9134275,"Región Metropolitana de Santiago","Maipú","Santiago",66,501581,7599.71212121212
"451","Supermercado Líder - Mall Plaza Oeste","Av. Américo Vespucio Nº 2500",-33.468247,-70.762051,320,61424.9825258,8,7,13119,13,199087566.723,73734.9134275,"Región Metropolitana de Santiago","Maipú","Santiago",66,501581,7599.71212121212
"452","Supermercado Unimarc - Jorge Guerra","Jorge Guerra N° 16190",-33.543767,-70.772853,320,61424.9825258,8,7,13119,13,199087566.723,73734.9134275,"Región Metropolitana de Santiago","Maipú","Santiago",66,501581,7599.71212121212
"453","Supermercado Montserrat - Av. Alfredo Silva Carvallo","Av. Alfredo Silva Carvallo N° 1401",-33.5329633333,-70.7774633333,320,61424.9825258,8,7,13119,13,199087566.723,73734.9134275,"Región Metropolitana de Santiago","Maipú","Santiago",66,501581,7599.71212121212
"454","Supermercado Líder - Pajaritos / Teniente Cruz","Av. Los Pajaritos Nº 2689",-33.503579,-70.757256,320,61424.9825258,8,7,13119,13,199087566.723,73734.9134275,"Región Metropolitana de Santiago","Maipú","Santiago",66,501581,7599.71212121212
"455","Supermercado Unimarc - Ramón Freire","Ramón Freire Nº 1529",-33.5102482261,-70.7778880593,320,61424.9825258,8,7,13119,13,199087566.723,73734.9134275,"Región Metropolitana de Santiago","Maipú","Santiago",66,501581,7599.71212121212
"456","Supermercado Unimarc - Av. Segunda Transversal ","Av. Segunda Transversal N° 4090",-33.488479,-70.74254,320,61424.9825258,8,7,13119,13,199087566.723,73734.9134275,"Región Metropolitana de Santiago","Maipú","Santiago",66,501581,7599.71212121212
"457","Supermercado Unimarc - Av. 4 Poniente","Av. 4 Poniente N° 1197 ",-33.516592,-70.791335,320,61424.9825258,8,7,13119,13,199087566.723,73734.9134275,"Región Metropolitana de Santiago","Maipú","Santiago",66,501581,7599.71212121212
"458","Supermercado Santa Isabel - Espacio Urbano Maipú","Av. 5 de Abril N° 216",-33.510683,-70.760047,320,61424.9825258,8,7,13119,13,199087566.723,73734.9134275,"Región Metropolitana de Santiago","Maipú","Santiago",66,501581,7599.71212121212
"459","Supermercado Ekono - Primo de Rivera","Primo de Rivera N° 1447",-33.492282,-70.739315,320,61424.9825258,8,7,13119,13,199087566.723,73734.9134275,"Región Metropolitana de Santiago","Maipú","Santiago",66,501581,7599.71212121212
"460","Supermercado Líder - 3 Poniente","Av. 3 Poniente Nº 900",-33.528107,-70.777515,320,61424.9825258,8,7,13119,13,199087566.723,73734.9134275,"Región Metropolitana de Santiago","Maipú","Santiago",66,501581,7599.71212121212
"461","Supermercado Santa Isabel - La Farfana","Ingeniero Eduardo Dominguez Nº 666",-33.4914877,-70.7757813,320,61424.9825258,8,7,13119,13,199087566.723,73734.9134275,"Región Metropolitana de Santiago","Maipú","Santiago",66,501581,7599.71212121212
"462","Supermercado Santa Isabel - Eduardo Castillo Velasco","Av. Eduardo Castillo Velasco Nº 8751",-33.46099,-70.584659,321,17714.1260512,10,7,13120,13,24367720.2403,21422.185446,"Región Metropolitana de Santiago","Ñuñoa","Santiago",28,200085,7145.89285714286
"463","Supermercados Los Alpes","Av. Vicuña Mackenna N° 798",-33.4521329002,-70.6306046318,321,17714.1260512,10,7,13120,13,24367720.2403,21422.185446,"Región Metropolitana de Santiago","Ñuñoa","Santiago",28,200085,7145.89285714286
"464","Supermercado Ekono - Av. Pedro de Valdivia / Zañartu","Av. Pedro de Valdivia N° 5359",-33.472935,-70.606389,321,17714.1260512,10,7,13120,13,24367720.2403,21422.185446,"Región Metropolitana de Santiago","Ñuñoa","Santiago",28,200085,7145.89285714286
"465","Supermercado Santa Isabel - Pedro de Valdivia","Av. Pedro de Valdivia Nº 3362",-33.4533284,-70.6048216,321,17714.1260512,10,7,13120,13,24367720.2403,21422.185446,"Región Metropolitana de Santiago","Ñuñoa","Santiago",28,200085,7145.89285714286
"466","Supermercados La Verbena","La Verbena  N° 5480 ",-33.43914255,-70.57367716,321,17714.1260512,10,7,13120,13,24367720.2403,21422.185446,"Región Metropolitana de Santiago","Ñuñoa","Santiago",28,200085,7145.89285714286
"467","Supermercado Ekono - Coventry","Coventry N° 601",-33.448933,-70.58066,321,17714.1260512,10,7,13120,13,24367720.2403,21422.185446,"Región Metropolitana de Santiago","Ñuñoa","Santiago",28,200085,7145.89285714286
"468","Supermercados Unimarc - Ñuñoa","Sócrates N° 1152",-33.46285,-70.620041,321,17714.1260512,10,7,13120,13,24367720.2403,21422.185446,"Región Metropolitana de Santiago","Ñuñoa","Santiago",28,200085,7145.89285714286
"469","Supermercado Unimarc - Manuel Montt","Av. Irarrazaval N° 1730",-33.453072,-70.612881,321,17714.1260512,10,7,13120,13,24367720.2403,21422.185446,"Región Metropolitana de Santiago","Ñuñoa","Santiago",28,200085,7145.89285714286
"470","Supermercado Ekono - Alcalde Jorge Monckeberg","Alcalde Jorge Monckeberg N° 1911",-33.472233,-70.58714,321,17714.1260512,10,7,13120,13,24367720.2403,21422.185446,"Región Metropolitana de Santiago","Ñuñoa","Santiago",28,200085,7145.89285714286
"471","Comercializadora y Distribuidora Navas Ltda","Av. Irarrázaval N° 3087",-33.454929,-70.598839,321,17714.1260512,10,7,13120,13,24367720.2403,21422.185446,"Región Metropolitana de Santiago","Ñuñoa","Santiago",28,200085,7145.89285714286
"472","Supermercado Santa Isabel - Vicuña Mackenna / Matta","Av. Vicuña Mackenna Nº 1048",-33.45481,-70.629919,321,17714.1260512,10,7,13120,13,24367720.2403,21422.185446,"Región Metropolitana de Santiago","Ñuñoa","Santiago",28,200085,7145.89285714286
"473","Ekono","Irarrazabal N° 710",-33.4534548168889,-70.622526758163,321,17714.1260512,10,7,13120,13,24367720.2403,21422.185446,"Región Metropolitana de Santiago","Ñuñoa","Santiago",28,200085,7145.89285714286
"474","Supermercado Unimarc - Obispo Orrego","Obispo Orrego N° 1250",-33.464332,-70.620326,321,17714.1260512,10,7,13120,13,24367720.2403,21422.185446,"Región Metropolitana de Santiago","Ñuñoa","Santiago",28,200085,7145.89285714286
"475","Express Lider - Irarrazaval 2401","Av. Irarrazaval N° 2401",-33.4540761,-70.6059477,321,17714.1260512,10,7,13120,13,24367720.2403,21422.185446,"Región Metropolitana de Santiago","Ñuñoa","Santiago",28,200085,7145.89285714286
"476","Supermercado Hiper Líder - Vicuña Mackenna / Irarrázaval","Av. Irarrazaval N° 5353",-33.4539982024,-70.5753524816,321,17714.1260512,10,7,13120,13,24367720.2403,21422.185446,"Región Metropolitana de Santiago","Ñuñoa","Santiago",28,200085,7145.89285714286
"477","Supermercado Ekono - Irarrázaval / Italia","Av. Irarrázaval Nº 710",-33.4531840201,-70.622907576,321,17714.1260512,10,7,13120,13,24367720.2403,21422.185446,"Región Metropolitana de Santiago","Ñuñoa","Santiago",28,200085,7145.89285714286
"478","Supermercado Líder - Av. Irarrázaval / Suecia","Av. Irarrázaval N° 2928",-33.454514,-70.600609,321,17714.1260512,10,7,13120,13,24367720.2403,21422.185446,"Región Metropolitana de Santiago","Ñuñoa","Santiago",28,200085,7145.89285714286
"479","Supermercado Líder Express - Grecia / José Domingo Cañas","Av. Grecia Nº 245",-33.455325,-70.627112,321,17714.1260512,10,7,13120,13,24367720.2403,21422.185446,"Región Metropolitana de Santiago","Ñuñoa","Santiago",28,200085,7145.89285714286
"480","Supermercado Ekono - General José Artigas","General José Artigas N° 2877",-33.445164,-70.599171,321,17714.1260512,10,7,13120,13,24367720.2403,21422.185446,"Región Metropolitana de Santiago","Ñuñoa","Santiago",28,200085,7145.89285714286
"481","Supermercado Unimarc - Ñuñoa","Av. Irarrázaval N° 1740",-33.4534427334,-70.6128620095,321,17714.1260512,10,7,13120,13,24367720.2403,21422.185446,"Región Metropolitana de Santiago","Ñuñoa","Santiago",28,200085,7145.89285714286
"482","Supermercado Unimarc - Grecia","Av. Grecia N° 320",-33.455779,-70.626113,321,17714.1260512,10,7,13120,13,24367720.2403,21422.185446,"Región Metropolitana de Santiago","Ñuñoa","Santiago",28,200085,7145.89285714286
"483","Supermercado Jumbo - Mall Portal Ñuñoa","Av. José Pedro Alessandri N° 1166",-33.4654233125,-70.5981696667,321,17714.1260512,10,7,13120,13,24367720.2403,21422.185446,"Región Metropolitana de Santiago","Ñuñoa","Santiago",28,200085,7145.89285714286
"484","Supermercado Ekono - Av. Irarrázaval / Lincoyán","Av. Irarrázaval N° 710",-33.453285,-70.622973,321,17714.1260512,10,7,13120,13,24367720.2403,21422.185446,"Región Metropolitana de Santiago","Ñuñoa","Santiago",28,200085,7145.89285714286
"485","Supermercado Unimarc - Av. Irarrázaval / General Gorostiaga ","Av. Irarrázaval N° 4354",-33.454271,-70.5831036,321,17714.1260512,10,7,13120,13,24367720.2403,21422.185446,"Región Metropolitana de Santiago","Ñuñoa","Santiago",28,200085,7145.89285714286
"486","Supermercado Montserrat - Av. Irarrázaval","Av. Irarrázaval N° 1489",-33.453078,-70.615439,321,17714.1260512,10,7,13120,13,24367720.2403,21422.185446,"Región Metropolitana de Santiago","Ñuñoa","Santiago",28,200085,7145.89285714286
"487","Supermercado Santa Isabel - Pedro de Valdivia / Irarrázaval","Av. Pedro de Valdivia Nº 3362",-33.453328,-70.604803,321,17714.1260512,10,7,13120,13,24367720.2403,21422.185446,"Región Metropolitana de Santiago","Ñuñoa","Santiago",28,200085,7145.89285714286
"488","Supermercado Unimarc - General José Artigas","General José Artigas N° 3250",-33.4492817398444,-70.5979928378057,321,17714.1260512,10,7,13120,13,24367720.2403,21422.185446,"Región Metropolitana de Santiago","Ñuñoa","Santiago",28,200085,7145.89285714286
"489","Supermercado Santa Isabel - Vicuña Mackenna / Manuel Antonio Matta","Av. Vicuña Mackenna Nº 1048",-33.45481,-70.629919,321,17714.1260512,10,7,13120,13,24367720.2403,21422.185446,"Región Metropolitana de Santiago","Ñuñoa","Santiago",28,200085,7145.89285714286
"490","Supermercado Erbi - Quiapo","Quiapo N° 3055",-33.4801502642,-70.6758381932,322,13054.5635243,13,7,13121,13,12258083.3879,15005.0494402,"Región Metropolitana de Santiago","Pedro Aguirre Cerda","Santiago",6,96088,16014.6666666667
"491","Mercado Mayorista Lo Valledor","Av. Maipú N° 3301",-33.4792333412,-70.6809597417,322,13054.5635243,13,7,13121,13,12258083.3879,15005.0494402,"Región Metropolitana de Santiago","Pedro Aguirre Cerda","Santiago",6,96088,16014.6666666667
"492","Supermercado Santa Isabel - Carlos Valdovinos","Av. Alcalde Carlos Valdovinos Nº 2020",-33.478821,-70.663111,322,13054.5635243,13,7,13121,13,12258083.3879,15005.0494402,"Región Metropolitana de Santiago","Pedro Aguirre Cerda","Santiago",6,96088,16014.6666666667
"493","Supermercado Santa Isabel - José Joaquín Prieto","José Joaquín Prieto Nº 5531",-33.5026351,-70.6678347,322,13054.5635243,13,7,13121,13,12258083.3879,15005.0494402,"Región Metropolitana de Santiago","Pedro Aguirre Cerda","Santiago",6,96088,16014.6666666667
"494","Supermercado Ekono - Quemchi","Quemchi N° 5875 ",-33.502616,-70.676456,322,13054.5635243,13,7,13121,13,12258083.3879,15005.0494402,"Región Metropolitana de Santiago","Pedro Aguirre Cerda","Santiago",6,96088,16014.6666666667
"495","Supermercado Ekono - Central / Central Cardenal Raúl Silva Henríquez","Av. Central N° 5960",-33.486275,-70.686803,322,13054.5635243,13,7,13121,13,12258083.3879,15005.0494402,"Región Metropolitana de Santiago","Pedro Aguirre Cerda","Santiago",6,96088,16014.6666666667
"496","Supermercado Ekono - San Francisco","San Francisco N° 8520",-33.436462,-70.74795,325,72008.88548,8,7,13124,13,285185488.351,86258.7516983,"Región Metropolitana de Santiago","Pudahuel","Santiago",13,214672,16513.2307692308
"497","Ekono - Av. Laguna Sur","Av. Laguna Sur N° 8438",-33.460206,-70.752051,325,72008.88548,8,7,13124,13,285185488.351,86258.7516983,"Región Metropolitana de Santiago","Pudahuel","Santiago",13,214672,16513.2307692308
"498","Supermercado Ekono - San Daniel","San Daniel N° 8960",-33.4318641989,-70.7523867011,325,72008.88548,8,7,13124,13,285185488.351,86258.7516983,"Región Metropolitana de Santiago","Pudahuel","Santiago",13,214672,16513.2307692308
"499","Supermercado Ekono - Los Lebreles","Los Lebreles N° 8746",-33.462517,-70.760672,325,72008.88548,8,7,13124,13,285185488.351,86258.7516983,"Región Metropolitana de Santiago","Pudahuel","Santiago",13,214672,16513.2307692308
"500","Supermercado Ekono - El Tranque","El Tranque N° 1292",-33.433307,-70.770709,325,72008.88548,8,7,13124,13,285185488.351,86258.7516983,"Región Metropolitana de Santiago","Pudahuel","Santiago",13,214672,16513.2307692308
"501","Supermercado Mayorista 10 - San Pablo / Dagoberto Godoy","San Pablo N° 8537",-33.444473,-70.748862,325,72008.88548,8,7,13124,13,285185488.351,86258.7516983,"Región Metropolitana de Santiago","Pudahuel","Santiago",13,214672,16513.2307692308
"502","Supermercado Santa Isabel Travesia","Isla Portezuelo N° 615",-33.451482,-70.763152,325,72008.88548,8,7,13124,13,285185488.351,86258.7516983,"Región Metropolitana de Santiago","Pudahuel","Santiago",13,214672,16513.2307692308
"503","Supermercado Ekono - Santa Norma","Santa Norma N° 9572",-33.4334888765,-70.7706377541,325,72008.88548,8,7,13124,13,285185488.351,86258.7516983,"Región Metropolitana de Santiago","Pudahuel","Santiago",13,214672,16513.2307692308
"504","Supermercado Ekono - Corona Sueca","Corona Sueca N° 8710",-33.447614,-70.754665,325,72008.88548,8,7,13124,13,285185488.351,86258.7516983,"Región Metropolitana de Santiago","Pudahuel","Santiago",13,214672,16513.2307692308
"505","Ekono - Av. Laguna Sur / Juan Guzmán Cruchaga","Av. Laguna Sur N° 7383",-33.461789,-70.743062,325,72008.88548,8,7,13124,13,285185488.351,86258.7516983,"Región Metropolitana de Santiago","Pudahuel","Santiago",13,214672,16513.2307692308
"506","Supermercado Ekono - Av. San Pablo / Jesús Cañas","Av. San Pablo N° 9091",-33.441799,-70.762571,325,72008.88548,8,7,13124,13,285185488.351,86258.7516983,"Región Metropolitana de Santiago","Pudahuel","Santiago",13,214672,16513.2307692308
"507","Supermercado Unimarc - Av. El Canal","Av. El Canal N° 19591",-33.450839,-70.848059,325,72008.88548,8,7,13124,13,285185488.351,86258.7516983,"Región Metropolitana de Santiago","Pudahuel","Santiago",13,214672,16513.2307692308
"508","Supermercado Unimarc - Av. San Pablo","Av. San Pablo N° 8315",-33.4443062559999,-70.751331201,325,72008.88548,8,7,13124,13,285185488.351,86258.7516983,"Región Metropolitana de Santiago","Pudahuel","Santiago",13,214672,16513.2307692308
"509","Supermercado Santa Isabel - Lo Marcelota ","Av. Lo Marcoleta Nº 361",-33.359766,-70.744448,326,35236.9206324,8,7,13125,13,81528020.2769,42127.3203139,"Región Metropolitana de Santiago","Quilicura","Santiago",11,202295,18390.4545454545
"510","Supermercado Montserrat - Quilicura","Av. José Francisco Vergara N° 159",-33.36698,-70.734749,326,35236.9206324,8,7,13125,13,81528020.2769,42127.3203139,"Región Metropolitana de Santiago","Quilicura","Santiago",11,202295,18390.4545454545
"511","Supermercado Ekono - Santa Luisa","Santa Luisa N° 366",-33.350886,-70.73936,326,35236.9206324,8,7,13125,13,81528020.2769,42127.3203139,"Región Metropolitana de Santiago","Quilicura","Santiago",11,202295,18390.4545454545
"512","Supermercado Santa Isabel - Quilicura","Av. Manuel Antonio Matta Nº 437",-33.365723,-70.728844,326,35236.9206324,8,7,13125,13,81528020.2769,42127.3203139,"Región Metropolitana de Santiago","Quilicura","Santiago",11,202295,18390.4545454545
"513","Supermercados Hiper LTDA","Eduardo Frei Montalva Nº 8301",-33.3610368827,-70.7006803755,326,35236.9206324,8,7,13125,13,81528020.2769,42127.3203139,"Región Metropolitana de Santiago","Quilicura","Santiago",11,202295,18390.4545454545
"514","Supermercado Ekono - Av. Lo Cruzat / Los Europeos","Av. Lo Cruzat N° 281",-33.360011,-70.721039,326,35236.9206324,8,7,13125,13,81528020.2769,42127.3203139,"Región Metropolitana de Santiago","Quilicura","Santiago",11,202295,18390.4545454545
"515","Supermercado Ekono - Av. Manuel Antonio Matta / Volcán Guallatin","Av. Manuel Antonio Matta N° 369",-33.362078,-70.745641,326,35236.9206324,8,7,13125,13,81528020.2769,42127.3203139,"Región Metropolitana de Santiago","Quilicura","Santiago",11,202295,18390.4545454545
"516","Supermercado Ekono - General San Martín / San Luis","General San Martín N° 414",-33.366782,-70.737894,326,35236.9206324,8,7,13125,13,81528020.2769,42127.3203139,"Región Metropolitana de Santiago","Quilicura","Santiago",11,202295,18390.4545454545
"517","Supermercado Hiper Líder - Quilicura","Av. O'Higgins Nº 314",-33.360227,-70.72986,326,35236.9206324,8,7,13125,13,81528020.2769,42127.3203139,"Región Metropolitana de Santiago","Quilicura","Santiago",11,202295,18390.4545454545
"518","Supermercado Líder - Panamericana / Vespucio","Av. Presidente Eduardo Frei Montova Nº 8301 ",-33.3610368827,-70.7006803755,326,35236.9206324,8,7,13125,13,81528020.2769,42127.3203139,"Región Metropolitana de Santiago","Quilicura","Santiago",11,202295,18390.4545454545
"519","Supermercado Santa Isabel - Lo Marcoleta","Lo Marcoleta N° 361",-33.3604788276,-70.7454492312,326,35236.9206324,8,7,13125,13,81528020.2769,42127.3203139,"Región Metropolitana de Santiago","Quilicura","Santiago",11,202295,18390.4545454545
"520","Supermercado Acuenta","Av. Carrascal N° 6003",-33.415845,-70.711747,327,17674.5767905,9,7,13126,13,17084299.4672,21186.4193931,"Región Metropolitana de Santiago","Quinta Normal","Santiago",11,105235,9566.81818181818
"521","Supermercado Montserrat - Av. Walker Martínez","Av. Walker Martínez N° 1650",-33.431497,-70.692449,327,17674.5767905,9,7,13126,13,17084299.4672,21186.4193931,"Región Metropolitana de Santiago","Quinta Normal","Santiago",11,105235,9566.81818181818
"522","Supermercado Lo Franco","Av. Carrascal N° 4400",-33.4232514815,-70.6937144444,327,17674.5767905,9,7,13126,13,17084299.4672,21186.4193931,"Región Metropolitana de Santiago","Quinta Normal","Santiago",11,105235,9566.81818181818
"523","Supermercado Montserrat - Quinta Normal","joaquin walker martinez N° 1650",-33.430767,-70.692398,327,17674.5767905,9,7,13126,13,17084299.4672,21186.4193931,"Región Metropolitana de Santiago","Quinta Normal","Santiago",11,105235,9566.81818181818
"524","Supermercado Montserrat","Av Walker Martinez Nº 1650",-33.430767,-70.692398,327,17674.5767905,9,7,13126,13,17084299.4672,21186.4193931,"Región Metropolitana de Santiago","Quinta Normal","Santiago",11,105235,9566.81818181818
"525","Supermercado Santa Isabel - San Pablo","Av. San Pablo Nº 4870",-33.440064,-70.70187,327,17674.5767905,9,7,13126,13,17084299.4672,21186.4193931,"Región Metropolitana de Santiago","Quinta Normal","Santiago",11,105235,9566.81818181818
"526","Supermercado Unimarc - Gonzalo Bulnes","Gonzalo Bulnes N° 2407",-33.417241,-70.697968,327,17674.5767905,9,7,13126,13,17084299.4672,21186.4193931,"Región Metropolitana de Santiago","Quinta Normal","Santiago",11,105235,9566.81818181818
"527","Supermercado Ekono - Av. José Joaquín Perez / Sergio Valdovinos","Av. José Joaquín Perez N° 5199",-33.4323904229627,-70.7069134712219,327,17674.5767905,9,7,13126,13,17084299.4672,21186.4193931,"Región Metropolitana de Santiago","Quinta Normal","Santiago",11,105235,9566.81818181818
"528","Supermercado Líder - Quinta Normal ","Matucana Nº 1202",-33.4324904418,-70.6806658986,327,17674.5767905,9,7,13126,13,17084299.4672,21186.4193931,"Región Metropolitana de Santiago","Quinta Normal","Santiago",11,105235,9566.81818181818
"529","Supermercado Santa Isabel - Salvador Gutiérrez","Salvador Gutiérrez Nº 5495 ",-33.4232846,-70.7098042,327,17674.5767905,9,7,13126,13,17084299.4672,21186.4193931,"Región Metropolitana de Santiago","Quinta Normal","Santiago",11,105235,9566.81818181818
"530","Supermercado Ekono - Av. Carrascal / La Plata","Av. Carrascal N° 4436",-33.4231856282973,-70.6940817832947,327,17674.5767905,9,7,13126,13,17084299.4672,21186.4193931,"Región Metropolitana de Santiago","Quinta Normal","Santiago",11,105235,9566.81818181818
"531","Supermercado Mayorista 10 - El Salto","Av. El Salto N° 2506",-33.403922,-70.632013,328,18338.2183211,9,7,13127,13,22529573.6344,22003.86342,"Región Metropolitana de Santiago","Recoleta","Santiago",13,149163,11474.0769230769
"532","Supermercado Ekono - Bellavista","Bellavista N° 257",-33.433249,-70.643296,328,18338.2183211,9,7,13127,13,22529573.6344,22003.86342,"Región Metropolitana de Santiago","Recoleta","Santiago",13,149163,11474.0769230769
"533","Supermercados Erbi - Av. Perú","Av. Perú N° 845",-33.423539454,-70.6399011933,328,18338.2183211,9,7,13127,13,22529573.6344,22003.86342,"Región Metropolitana de Santiago","Recoleta","Santiago",13,149163,11474.0769230769
"534","Express","Dardignac N° 29",-33.4337941086,-70.6380588807,328,18338.2183211,9,7,13127,13,22529573.6344,22003.86342,"Región Metropolitana de Santiago","Recoleta","Santiago",13,149163,11474.0769230769
"535","Supermercado Cornejo","Purísima  N° 322 ",-33.43031879,-70.63817828,328,18338.2183211,9,7,13127,13,22529573.6344,22003.86342,"Región Metropolitana de Santiago","Recoleta","Santiago",13,149163,11474.0769230769
"536"," Supermercado Lider","Av. Recoleta Nº 3501",-33.393337,-70.642479,328,18338.2183211,9,7,13127,13,22529573.6344,22003.86342,"Región Metropolitana de Santiago","Recoleta","Santiago",13,149163,11474.0769230769
"537","Supermercado Ekono - Av. Recoleta","Av. Recoleta N° 901",-33.421977,-70.64473,328,18338.2183211,9,7,13127,13,22529573.6344,22003.86342,"Región Metropolitana de Santiago","Recoleta","Santiago",13,149163,11474.0769230769
"538","Supermercado Líder - Recoleta","Av. Recoleta Nº 3501",-33.393884,-70.642525,328,18338.2183211,9,7,13127,13,22529573.6344,22003.86342,"Región Metropolitana de Santiago","Recoleta","Santiago",13,149163,11474.0769230769
"539","Supermercado Ekono - Metro Einstein","Av. Recoleta N° 2302",-33.405718,-70.643165,328,18338.2183211,9,7,13127,13,22529573.6344,22003.86342,"Región Metropolitana de Santiago","Recoleta","Santiago",13,149163,11474.0769230769
"540","Supermercado Ekono - Recoleta / Santos Dumont","Av. Recoleta Nº 901 ",-33.4216926087,-70.6444796377,328,18338.2183211,9,7,13127,13,22529573.6344,22003.86342,"Región Metropolitana de Santiago","Recoleta","Santiago",13,149163,11474.0769230769
"541","Supermercado Ekono - Av. Recoleta / Eusebio Lillo","Av. Recoleta N° 351",-33.42897,-70.64681,328,18338.2183211,9,7,13127,13,22529573.6344,22003.86342,"Región Metropolitana de Santiago","Recoleta","Santiago",13,149163,11474.0769230769
"542","Supermerado Ekono - Av. El Salto","Av. El Salto N° 1871",-33.410823,-70.636648,328,18338.2183211,9,7,13127,13,22529573.6344,22003.86342,"Región Metropolitana de Santiago","Recoleta","Santiago",13,149163,11474.0769230769
"543","Supermercado Santa Isabel","Av. Recoleta Nº 2746",-33.4020632,-70.6429581,328,18338.2183211,9,7,13127,13,22529573.6344,22003.86342,"Región Metropolitana de Santiago","Recoleta","Santiago",13,149163,11474.0769230769
"544","Supermercado Ekono - Condell ","Condell N° 1833",-33.402122,-70.730974,329,28974.9567113,9,7,13128,13,34071271.6529,34707.5182161,"Región Metropolitana de Santiago","Renca","Santiago",10,140782,14078.2
"545","Supermercado Montserrat - Av. Domingo Santa María ","Av. Domingo Santa María N° 4112",-33.405264,-70.70452,329,28974.9567113,9,7,13128,13,34071271.6529,34707.5182161,"Región Metropolitana de Santiago","Renca","Santiago",10,140782,14078.2
"546","Supermercado Acuenta - Vicuña Mackenna","Av. Vicuña Mackenna N° 1050",-33.407966,-70.746034,329,28974.9567113,9,7,13128,13,34071271.6529,34707.5182161,"Región Metropolitana de Santiago","Renca","Santiago",10,140782,14078.2
"547","Supermercado Montserrat - Miraflores / El Montijo","Av. Miraflores N° 8045",-33.40021,-70.752992,329,28974.9567113,9,7,13128,13,34071271.6529,34707.5182161,"Región Metropolitana de Santiago","Renca","Santiago",10,140782,14078.2
"548","Supermercado Unimarc","Vicuña Mackenna N° 7.110",-33.394127,-70.750616,329,28974.9567113,9,7,13128,13,34071271.6529,34707.5182161,"Región Metropolitana de Santiago","Renca","Santiago",10,140782,14078.2
"549","Supermercado Ekono - Brasil / La Punta","Brasil N° 7073",-33.4001335440201,-70.7448506355286,329,28974.9567113,9,7,13128,13,34071271.6529,34707.5182161,"Región Metropolitana de Santiago","Renca","Santiago",10,140782,14078.2
"550","Supermercado Mayorista Alvi - Renca","Caupolicán N° 1340",-33.406224,-70.69997,329,28974.9567113,9,7,13128,13,34071271.6529,34707.5182161,"Región Metropolitana de Santiago","Renca","Santiago",10,140782,14078.2
"551","Supermercado Montserrat - Av. José Manuel Balmaceda","Av. José Manuel Balmaceda N° 4569",-33.402103,-70.714572,329,28974.9567113,9,7,13128,13,34071271.6529,34707.5182161,"Región Metropolitana de Santiago","Renca","Santiago",10,140782,14078.2
"552","Supermercado Unimarc - Av. Brasil","Av. Brasil N° 7085",-33.400633,-70.744353,329,28974.9567113,9,7,13128,13,34071271.6529,34707.5182161,"Región Metropolitana de Santiago","Renca","Santiago",10,140782,14078.2
"553","Supermercado Santa Isabel - Domingo Santa María ","Av. Domingo Santa María Nº 3962",-33.40672,-70.70048,329,28974.9567113,9,7,13128,13,34071271.6529,34707.5182161,"Región Metropolitana de Santiago","Renca","Santiago",10,140782,14078.2
